location_id	address	city	state	zip	phone
6801	7806 Forest Point Blvd	Charlotte	NC	28217	(704) 527-1681
6848	1600 Remount Rd	Charlotte	NC	28208	(704) 371-8783
6835	7725 Pineville Matthews Rd	Charlotte	NC	28226	(704) 752-6885
6827	6328 Banner Elk Dr	Charlotte	NC	28216	(704) 392-0766
6826	220 N Hoskins Rd	Charlotte	NC	28216	(704) 392-6166
6825	10730 S Tryon St	Charlotte	NC	28273	(704) 588-1015
6821	10525 Mallard Creek Rd	Charlotte	NC	28262	(704) 549-0522
6819	10121 N Tryon St	Charlotte	NC	28262	(704) 503-6882
6850	4505 Randolph Rd	Charlotte	NC	28211	(704) 362-1709
6804	7000 Wt Harris Blvd	Charlotte	NC	28269	(704) 921-4450
6807	335 Westinghouse Blvd	Charlotte	NC	28273	(704) 583-9191
6812	7770 Lyles Ln	Concord	NC	28027	(704) 979-0300
6808	943 Concord Pkwy S	Concord	NC	28027	(704) 789-9619
6834	510 10th St Nw	Conover	NC	28613	(828) 695-1638
6836	102 College View Dr	Dallas	NC	28034	(704) 922-9178
6803	3618 E Franklin Blvd	Gastonia	NC	28056	(704) 823-1903
6839	76 Highlands Square Dr	Hendersonville	NC	28792	(828) 697-0390
6829	603 Us Highway 321 Nw	Hickory	NC	28601	(828) 328-3058
6823	1776 Catawba Valley Blvd Se	Hickory	NC	28602	(828) 304-8295
6830	344 Blowing Rock Blvd	Lenoir	NC	28645	(828) 759-1015
6847	1600 E Roosevelt Blvd	Monroe	NC	28112	(704) 225-7742
6815	455 Earl Rd	Shelby	NC	28150	(704) 480-6842
6824	1833 E Broad St	Statesville	NC	28625	(704) 872-6500
location_id	address	city	state	zip	phone
6419	4113 Clemson Blvd	Anderson	SC	29621	(864) 224-8983
6421	6601 Calhoun Memorial Hwy	Easley	SC	29640	(864) 306-8177
6413	1490 Poinsett Hwy	Greenville	SC	29609	(864) 467-0540
6404	1106 N Pleasantburg Dr	Greenville	SC	29607	(864) 609-0019
6411	3709 Pelham Rd	Greenville	SC	29615	(864) 675-9598
6417	1343 S Pleasantburg Dr	Greenville	SC	29605	(864) 422-1252
6407	14011 E Wade Hampton Blvd	Greer	SC	29651	(864) 801-4500
6401	895 Heckle Blvd	Rock Hill	SC	29730	(803) 366-3255
6403	1929 Springsteen Rd	Rock Hill	SC	29730	(803) 328-3600
6424	2615 Cherry Rd	Rock Hill	SC	29730	(803) 981-5241
6418	695 Fairview Rd	Simpsonville	SC	29680	(864) 963-1841
6405	2609 Woodruff Rd	Simpsonville	SC	29681	(864) 297-0800
6422	1500 Wo Ezell Blvd	Spartanburg	SC	29301	(864) 587-7100
location_id	address	city	state	zip	phone
6923	40 Dover Crossing Rd	Clarksville	TN	37042	(931) 648-4401
6904	3000 Mallory Ln	Franklin	TN	37067	(615) 778-9575
6902	5656 Old Hickory Blvd	Hermitage	TN	37076	(615) 883-5191
6927	509 S Cumberland St	Lebanon	TN	37087	(615) 453-4767
6905	2397 Memorial Blvd	Murfreesboro	TN	37129	(615) 849-1234
6913	2181 Old Fort Pkwy	Murfreesboro	TN	37129	(615) 904-1803
6900	3900 Dickerson Pike	Nashville	TN	37207	(615) 865-8099
6922	1504 Hampton St	Nashville	TN	37207	(615) 228-1336
6919	5615 Charlotte Pike	Nashville	TN	37209	(615) 353-9032
6912	204 Largo Dr	Nashville	TN	37211	(615) 315-9206
6911	622 Mcgavock Pike	Nashville	TN	37214	(615) 232-9411
6909	3133 Lebanon Pike	Nashville	TN	37214	(615) 874-4190
6903	2008 W End Ave	Nashville	TN	37203	(615) 329-8266
6930	1000 Capital Funds Ct	Nashville	TN	37217	(615) 360-7766
location_id	address	city	state	zip	phone
6212	9769 E. Us Highway 36	Avon	IN	46123	(317) 209-8279
6215	11614 Allisonville Road	Fishers	IN	46037	(000) 000-0000
6209	8950 S Us 31	Indianapolis	IN	46227	(317) 883-3035
6210	2130 N Post Rd	Indianapolis	IN	46219	(317) 897-8043
location_id	address	city	state	zip	phone
1405	1649 Washington Ave	Alton	IL	62002	(618) 465-0093
1408	101 Homer M Adams Pkwy	Alton	IL	62002	(618) 462-9905
1415	500 S Illinois St	Belleville	IL	62220	(618) 235-9008
1411	9502 Collinsville Rd	Collinsville	IL	62234	(618) 344-7848
1414	300 S Buchanan St	Edwardsville	IL	62025	(618) 692-1414
1418	31 Junction Dr	Glen Carbon	IL	62034	(618) 655-0570
1402	3330 Nameoki Rd	Granite City	IL	62040	(618) 877-8884
1416	2163 Madison Ave	Granite City	IL	62040	(618) 452-5847
1421	1 Corvette Dr	Litchfield	IL	62056	(217) 324-3300
1412	1360 W Us Highway 50	O Fallon	IL	62269	(618) 632-1460
1410	1800 N Illinois St	Swansea	IL	62226	(618) 277-1822
1413	830 Edwardsville Rd	Troy	IL	62294	(618) 667-3000
1403	41 E Edwardsville Rd	Wood River	IL	62095	(618) 254-2098
location_id	address	city	state	zip	phone
4059	1289 Jeffco Blvd	Arnold	MO	63010	(636) 296-2123
4038	9707 Natural Bridge Rd	Berkeley	MO	63134	(314) 423-0244
6205	808 N 7 Hwy	Blue Springs	MO	64014	(816) 220-3180
4037	12298 Saint Charles Rock Rd	Bridgeton	MO	63044	(314) 739-2373
4048	9805 Watson Rd	Crestwood	MO	63126	(314) 965-0363
4092	1112 Oak Hill Ave	Cuba	MO	65453	(573) 885-3223
4061	1208 N Desloge St	Desloge	MO	63601	(573) 431-5111
4073	3404 Rider Trl S	Earth City	MO	63045	(314) 739-2046
4007	15354 Manchester Rd	Ellisville	MO	63011	(636) 391-7829
4060	795 Maple Valley Dr	Farmington	MO	63640	(573) 756-8010
4093	986 S Highway Dr	Fenton	MO	63026	(636) 326-4084
4123	899 Veterans Blvd	Festus	MO	63028	(636) 931-5561
4072	158 Howdershell Rd	Florissant	MO	63031	(314) 921-1800
4006	4595 Washington St	Florissant	MO	63033	(314) 831-0971
4016	2095 N US Highway 67	Florissant	MO	63033	(314) 831-1928
4045	11204 W Florissant Ave	Florissant	MO	63033	(314) 831-2530
4049	6100 Howdershell Rd	Hazelwood	MO	63042	(314) 895-1716
4052	322 Taylor Rd	Hazelwood	MO	63042	(314) 895-3322
4095	1197 Scenic Dr	Herculaneum	MO	63048	(636) 479-7241
4094	5300 Caroline Dr	High Ridge	MO	63049	(636) 376-5924
4099	1202 Main St	Imperial	MO	63052	(636) 467-2478
4124	459 Hawk Ridge Trail Dr	Lake Saint Louis	MO	63367	(636) 625-1993
4031	7520 Manchester Rd	Maplewood	MO	63143	(314) 645-4722
4034	7960 Watson Rd	Marlborough	MO	63119	(314) 961-6985
4047	415 S Main St	O Fallon	MO	63366	(636) 240-7510
4097	910 Bryan Rd	O Fallon	MO	63366	(636) 272-7242
4058	5624 Telegraph Rd	Oakville	MO	63129	(314) 846-9770
4076	11122 Saint Charles Rock Rd	Saint Ann	MO	63074	(314) 739-0039
4078	3710 Elm St	Saint Charles	MO	63301	(636) 947-4010
4084	1016 S 5th St	Saint Charles	MO	63301	(636) 896-8092
4044	1992 Zumbehl Rd	Saint Charles	MO	63303	(636) 949-2310
4018	4292 Bayless Ave	Saint Louis	MO	63123	(314) 631-4749
4020	5600 S Grand Blvd	Saint Louis	MO	63111	(314) 351-3686
4024	4201 S Kingshighway Blvd	Saint Louis	MO	63109	(314) 351-0952
4122	4111 Lindell Blvd	Saint Louis	MO	63108	(314) 652-1649
4017	1242 Hampton Ave	Saint Louis	MO	63139	(314) 644-2547
4090	10866 Lilac Ave	Saint Louis	MO	63137	(314) 867-5416
4043	9970 Kennerly Rd	Saint Louis	MO	63128	(314) 842-2180
4040	2666 Telegraph Rd	Saint Louis	MO	63125	(314) 894-8716
4027	2163 S Grand Ave	Saint Louis	MO	63104	(314) 773-1553
4046	4500 Lemay Ferry Rd	Saint Louis	MO	63129	(314) 487-2285
4036	1807 Gravois Ave	Saint Louis	MO	63104	(314) 773-2636
4071	11830 Lusher Rd	Saint Louis	MO	63138	(314) 741-8770
4028	10460 Page Blvd	Saint Louis	MO	63132	(314) 428-6207
4079	5905 S Lindbergh Blvd	Saint Louis	MO	63123	(314) 894-2573
4030	4124 Mexico Rd	Saint Peters	MO	63376	(636) 928-8941
4098	6096 Mid Rivers Mall Dr	Saint Peters	MO	63304	(636) 447-2084
5001	299 Salt Lick Rd Ste 100	Saint Peters	MO	63376	(636) 279-6053
4053	633 E Springfield Rd	Sullivan	MO	63080	(573) 468-2500
4125	302 Highway 47 E	Troy	MO	63379	(636) 528-2802
4120	101 Bourbeuse River Access	Union	MO	63084	(636) 584-8497
4074	6950 Olive Blvd	University City	MO	63130	(314) 862-6070
4089	8307 Page Ave	Vinita Park	MO	63130	(314) 429-0228
4054	605 N Service Rd	Warrenton	MO	63383	(636) 456-8500
4081	1930 Washington Xing	Washington	MO	63090	(636) 390-4671
4086	6000 S Highway 94	Weldon Spring	MO	63304	(636) 329-1460
4085	1992 Wentzville Pkwy	Wentzville	MO	63385	(636) 332-2277
4080	16590 Manchester Rd	Wildwood	MO	63040	(636) 458-2222
location_id	address	city	state	zip	phone
6308	8919 Siegen Ln	Baton Rouge	LA	70810	(225) 819-9838
6326	10432 Sullivan Rd	Baton Rouge	LA	70818	(225) 262-7665
6323	11682 Plank Rd	Baton Rouge	LA	70811	(225) 775-0324
6329	8110 Florida Blvd	Baton Rouge	LA	70806	(225) 925-0004
6335	2805 Scenic Hwy	Baton Rouge	LA	70805	(225) 356-1215
6319	3255 Highland Rd	Baton Rouge	LA	70802	(225) 343-6091
6339	10982 Greenwell Springs Rd	Baton Rouge	LA	70814	(225) 274-2650
6316	7725 Airline Hwy	Baton Rouge	LA	70815	(225) 248-1644
6315	2181 S Sherwood Forest Blvd	Baton Rouge	LA	70816	(225) 273-1003
6312	508 S Foster Dr	Baton Rouge	LA	70806	(225) 928-4700
6311	13520 Florida Blvd	Baton Rouge	LA	70819	(225) 272-4590
6310	9316 Burbank Dr	Baton Rouge	LA	70820	(225) 766-1470
6309	11310 Airline Hwy	Baton Rouge	LA	70816	(225) 293-0602
6327	8008 Scenic Hwy	Baton Rouge	LA	70807	(225) 774-9775
6321	1703 N Airline Hwy	Gonzales	LA	70737	(225) 647-3603
6318	2123 W Highway 30	Gonzales	LA	70737	(225) 647-6106
6340	2484 S Cities Service Hwy	Sulphur	LA	70665	(337) 626-1418
6322	28175 Walker Rd S	Walker	LA	70785	(225) 791-1594
location_id	address	city	state	zip	phone
6200	211 S 18th St	Kansas City	KS	66102	(913) 371-0911
6202	10630 Parallel Pkwy	Kansas City	KS	66109	(913) 287-5512
6204	17820 W 119th St	Olathe	KS	66061	(913) 227-0782
6201	10317 Metcalf Ave	Overland Park	KS	66212	(913) 381-2618
location_id	address	city	state	zip	phone
6100	1501 N Country Club Dr	Ada	OK	74820	(580) 421-9695
6138	1036 W Broadway St	Ardmore	OK	73401	(580) 223-1886
6139	2221 W Kenosha St	Broken Arrow	OK	74012	(918) 258-0245
6137	2117 W Main St	Durant	OK	74701	(580) 931-3502
6149	2108 W Danforth Rd Coe	Edmond	OK	73003	(405) 359-4929
6140	7085 Se 29th St	Midwest City	OK	73110	(405) 741-0101
6144	690 Sw 19th St	Moore	OK	73160	(405) 793-0546
6141	615 12th Ave Ne	Norman	OK	73070	(405) 329-2981
6143	540 S Macarthur Blvd	Oklahoma City	OK	73128	(405) 948-3174
6150	7100 S May Ave	Oklahoma City	OK	73159	(405) 684-2376
6152	5301 N May Ave	Oklahoma City	OK	73112	(405) 917-7715
6145	10861 E 41st St	Tulsa	OK	74146	(918) 660-7880
6146	4840 S Yale Ave	Tulsa	OK	74135	(918) 493-6537
6151	10014 S Memorial Dr E	Tulsa	OK	74133	(918) 298-4501
location_id	address	city	state	zip	phone
3799	804 W Mcdermott Dr	Allen	TX	75013	(972) 727-8327
4798	394 E Stacy Rd	Allen	TX	75002	(214) 383-5660
664	615 S Gordon St	Alvin	TX	77511	(281) 331-2311
3928	2805 N Highway 35	Alvin	TX	77511	(281) 331-2505
685	839 E Mulberry St	Angleton	TX	77515	(979) 849-0057
3777	5920 S Cooper St	Arlington	TX	76017	(817) 557-8743
758	1807 E Park Row Dr	Arlington	TX	76010	(817) 277-0782
3782	901 Interstate 20 E	Arlington	TX	76018	(817) 419-9402
762	712 E Pioneer Pkwy	Arlington	TX	76010	(817) 277-9520
3750	5340 Matlock Rd	Arlington	TX	76018	(817) 467-6611
3759	2401 SE Green Oaks Blvd	Arlington	TX	76018	(817) 375-3756
3715	3737 S Cooper St	Arlington	TX	76015	(817) 472-9462
3734	753 W Lamar Blvd	Arlington	TX	76012	(817) 861-2888
765	700 W Division St	Arlington	TX	76012	(817) 460-7888
4746	4950 W Sublett Rd	Arlington	TX	76001	(817) 563-0087
3724	2880 E Pioneer Pkwy	Arlington	TX	76010	(817) 640-2145
3718	5775 W Pleasant Ridge Rd	Arlington	TX	76016	(817) 483-5812
740	900 N Collins St	Arlington	TX	76011	(817) 274-6731
3738	1734 E Division St	Arlington	TX	76011	(817) 860-5842
777	521 N Watson Rd	Arlington	TX	76011	(817) 640-8552
3820	1398 E Tyler St	Athens	TX	75751	(903) 670-3357
904	6133 E Ben White Blvd	Austin	TX	78741	(512) 389-0490
905	8706 E Us Highway 290	Austin	TX	78724	(512) 928-8969
912	6540 Ed Bluestein Blvd	Austin	TX	78723	(512) 927-0330
906	7404 Mcneil Dr	Austin	TX	78729	(512) 219-1809
922	12309 Dessau Rd	Austin	TX	78754	(512) 491-8200
865	6419 Airport Blvd	Austin	TX	78752	(512) 452-9291
810	7901 Burnet Rd	Austin	TX	78757	(512) 454-1555
840	110 E William Cannon St	Austin	TX	78745	(512) 442-0099
842	904 E Braker Ln	Austin	TX	78753	(512) 835-7054
843	9825 Burnet Rd	Austin	TX	78758	(512) 832-9323
845	1936 E Oltorf St	Austin	TX	78741	(512) 462-2676
848	8630 N Lamar Blvd	Austin	TX	78753	(512) 834-8924
825	814 E Rundberg Ln	Austin	TX	78753	(512) 837-1232
907	1151 Airport Blvd	Austin	TX	78702	(512) 928-8381
869	1000 E 41st St Unit K	Austin	TX	78751	(512) 458-6252
949	9300 S Ih 35 Ste A300 Bldg G	Austin	TX	78748	(512) 291-1188
823	1801 W Ben White Blvd	Austin	TX	78704	(512) 442-1697
837	1200 Barton Springs Rd	Austin	TX	78704	(512) 472-6934
867	6210 W William Cannon Dr	Austin	TX	78749	(512) 899-1312
802	2552 Guadalupe St	Austin	TX	78705	(512) 474-1708
3832	509 Central Dr	Azle	TX	76020	(817) 270-4465
3656	4605 Highway 146	Bacliff	TX	77518	(281) 339-6789
4756	12325 Lake June Rd	Balch Springs	TX	75180	(972) 329-5990
4812	1641 Highway 71 E	Bastrop	TX	78602	(512) 308-9561
680	2804 7th St	Bay City	TX	77414	(979) 245-1872
628	900 Decker Dr	Baytown	TX	77520	(281) 422-3340
3648	5107 East Fwy	Baytown	TX	77521	(281) 421-2259
4749	4234 Decker Dr	Baytown	TX	77520	(281) 424-2450
654	2210 N Alexander Dr	Baytown	TX	77520	(281) 422-3224
3668	8832 N Highway 146	Baytown	TX	77523	(281) 383-7363
3936	3601 N Main St	Baytown	TX	77521	(281) 837-1046
3646	590 Washington Blvd	Beaumont	TX	77705	(409) 832-4855
4776	1550 Interstate 10 E	Beaumont	TX	77703	(409) 813-1641
3686	3885 Interstate 10 S	Beaumont	TX	77705	(409) 842-3882
3978	7380 Highway 105	Beaumont	TX	77713	(409) 898-1948
3647	5601 College St	Beaumont	TX	77707	(409) 842-9480
4808	680 N 11th St	Beaumont	TX	77702	(409) 832-6900
3637	5870 Eastex Fwy	Beaumont	TX	77708	(409) 898-0213
3742	3355 Harwood Rd	Bedford	TX	76021	(817) 540-4933
3814	1525 Interstate 35 N	Bellmead	TX	76705	(254) 412-2013
4720	2808 Oakmark Dr	Belton	TX	76513	(254) 939-2168
756	7901 Camp Bowie W Blvd	Benbrook	TX	76116	(817) 244-0095
3802	8528 Benbrook Blvd	Benbrook	TX	76126	(817) 249-6580
687	400 Highway 290 W	Brenham	TX	77833	(979) 836-2657
4712	2395 Texas Ave	Bridge City	TX	77611	(409) 738-3097
3654	321 Fm 359 Rd S	Brookshire	TX	77423	(281) 375-5224
3674	5120 S Padre Island Hwy	Brownsville	TX	78521	(956) 831-7199
3664	916 N Expressway	Brownsville	TX	78521	(956) 541-8511
3951	2150 Paredes Line Rd	Brownsville	TX	78521	(956) 550-8994
3676	3355 International Blvd	Brownsville	TX	78521	(956) 544-5999
675	2906 S Texas Ave	Bryan	TX	77802	(979) 775-7103
3855	900 N Earl Rudder Fwy	Bryan	TX	77802	(979) 731-8893
919	15320 S Intersate 35	Buda	TX	78610	(512) 295-6786
780	300 Sw Wilshire Blvd	Burleson	TX	76028	(817) 295-6501
774	2666 Josey Ln	Carrollton	TX	75007	(972) 245-2082
4784	2452 Luna Rd	Carrollton	TX	75006	(972) 247-5181
928	2299 Nw Military Hwy	Castle Hills	TX	78213	(210) 340-9084
925	111 W State Highway 21	Cedar Creek	TX	78612	(512) 308-0387
3843	412 N Highway 67	Cedar Hill	TX	75104	(972) 293-9727
3764	1129 W St Marys St	Centerville	TX	75833	(903) 536-1022
670	514 Sheldon Rd	Channelview	TX	77530	(281) 452-2918
3829	110 W Katherine P Rains Rd	Cleburne	TX	76033	(817) 202-0145
766	603 W Henderson St	Cleburne	TX	76033	(817) 202-0153
691	419 S Washington Ave	Cleveland	TX	77327	(281) 592-9683
677	1041 W Plantation Dr	Clute	TX	77531	(979) 265-5190
3825	3511 Longmire Dr	College Station	TX	77845	(979) 695-2993
683	1504 Texas Ave S	College Station	TX	77840	(979) 693-4310
3945	2209 Highway 71 S	Columbus	TX	78934	(979) 732-5834
4713	9300 Highway 242	Conroe	TX	77385	(936) 271-3277
688	1184 W Dallas St	Conroe	TX	77301	(936) 539-3837
3957	1300 League Line Rd	Conroe	TX	77301	(936) 890-2059
4810	1405 N Loop W 336	Conroe	TX	77304	(936) 441-5369
3905	3595 N Loop 336 E	Conroe	TX	77301	(936) 539-3814
3831	121 E State Highway 121	Coppell	TX	75019	(214) 488-3969
828	901 E Highway 190	Copperas Cove	TX	76522	(254) 547-9898
3768	7900 S Interstate 35 E	Corinth	TX	76210	(940) 321-0727
4728	1502 Airline Rd Ste 302	Corpus Christi	TX	78412	(361) 980-8067
4727	3155 S Padre Island Dr	Corpus Christi	TX	78415	(361) 225-3746
4751	1238 Waldron Rd	Corpus Christi	TX	78418	(361) 939-9643
4729	10602 Ih 37	Corpus Christi	TX	78410	(361) 242-9818
4777	6505 Everhart Rd	Corpus Christi	TX	78413	(361) 225-2938
738	1739 W 7th Ave	Corsicana	TX	75110	(903) 872-4488
3812	2001 E Highway 31	Corsicana	TX	75109	(903) 872-5944
3995	13902 Fm 2100 Rd	Crosby	TX	77532	(281) 462-2527
4826	800 S Crowley Rd	Crowley	TX	76036	(000) 000-0000
3989	7021 Fry Rd	Cypress	TX	77433	(281) 856-8503
4813	17926 Spring Cypress Rd	Cypress	TX	77429	(281) 256-8992
703	1020 W Davis St	Dallas	TX	75208	(214) 946-5020
3704	2720 W Northwest Hwy	Dallas	TX	75220	(214) 352-9049
799	8227 Park Ln	Dallas	TX	75231	(214) 368-1849
3701	5235 W Lovers Ln	Dallas	TX	75209	(214) 353-9653
4748	1228 Robert B Cullum Blvd	Dallas	TX	75210	(214) 928-9194
3733	18220 Dallas Pkwy	Dallas	TX	75287	(972) 732-0033
4779	110 E Camp Wisdom Rd	Dallas	TX	75241	(972) 228-5679
3758	2405 Royal Ln	Dallas	TX	75229	(972) 406-1023
3757	2727 W Wheatland Rd	Dallas	TX	75237	(972) 780-9494
3749	9222 John Carpenter Fwy	Dallas	TX	75247	(214) 634-0664
3780	2323 W Ledbetter Dr	Dallas	TX	75224	(214) 333-7606
4759	12330 Greenville Ave	Dallas	TX	75243	(214) 570-8691
4806	721 S R L Thornton Fwy	Dallas	TX	75203	(214) 948-5505
3781	1301 N Hampton Rd	Dallas	TX	75208	(214) 941-1484
3744	7940 Lbj Fwy	Dallas	TX	75251	(972) 404-8706
3739	7260 N Stemmons Fwy	Dallas	TX	75247	(214) 637-5758
3767	2204 W Northwest Hwy	Dallas	TX	75220	(214) 351-3104
794	2021 S Buckner Blvd	Dallas	TX	75217	(214) 391-7555
3865	4313 W Illinois Ave	Dallas	TX	75211	(214) 467-7943
729	1020 S Westmoreland Rd	Dallas	TX	75211	(214) 331-5630
722	10107 Marsh Ln	Dallas	TX	75229	(214) 350-2632
727	6308 Gaston Ave	Dallas	TX	75214	(214) 823-3881
732	2611 S Hampton Rd	Dallas	TX	75224	(214) 337-8511
734	6355 E Mockingbird Ln	Dallas	TX	75214	(214) 826-7320
705	404 W Illinois Ave	Dallas	TX	75224	(214) 946-5019
744	3232 N Buckner Blvd	Dallas	TX	75228	(214) 328-5844
748	13555 Preston Rd	Dallas	TX	75240	(972) 239-2782
715	3195 Royal Ln	Dallas	TX	75229	(214) 351-5580
713	3117 Inwood Rd	Dallas	TX	75235	(214) 358-3966
704	4402 Maple Ave	Dallas	TX	75219	(214) 521-2560
3853	5025 S Lancaster Rd	Dallas	TX	75216	(214) 376-6722
4824	5336 Philip Ave	Dallas	TX	75223	(214) 370-8774
3837	4703 Greenville Ave	Dallas	TX	75206	(214) 378-9640
4820	190 Continental Ave	Dallas	TX	75207	(000) 000-0000
3824	7410 Bonnie View Rd	Dallas	TX	75241	(972) 225-2656
783	4210 N Central Expy	Dallas	TX	75206	(214) 823-3650
701	11404 Garland Rd	Dallas	TX	75218	(214) 327-8363
702	3811 Live Oak St	Dallas	TX	75204	(214) 826-2470
749	9661 Skillman St	Dallas	TX	75243	(214) 340-3321
3964	208 E Highway 90	Dayton	TX	77535	(936) 257-8008
742	901 N Hampton Rd	De Soto	TX	75115	(972) 223-4444
3753	900 S Highway 287	Decatur	TX	76234	(940) 627-7325
3918	10 Center St	Deer Park	TX	77536	(281) 478-4348
947	100 Braddie Dr	Del Rio	TX	78840	(830) 768-3050
768	1120 S Austin Ave	Denison	TX	75020	(903) 465-4343
3776	328 W University Dr	Denton	TX	76201	(940) 484-8068
719	1408 W Hickory St	Denton	TX	76201	(940) 387-8342
3835	104 S Loop 288	Denton	TX	76209	(940) 566-6721
793	2200 S Interstate 35 E	Denton	TX	76205	(940) 891-2620
3786	400 N Temple Dr	Diboll	TX	75941	(936) 829-3344
694	3815 Gulf Fwy	Dickinson	TX	77539	(281) 337-2842
735	503 E Camp Wisdom Rd	Duncanville	TX	75116	(972) 298-7401
796	907 E Highway 67	Duncanville	TX	75137	(972) 709-2757
3947	1602 W University Dr	Edinburg	TX	78539	(956) 386-1832
4700	102 E Monte Cristo Rd	Edinburg	TX	78541	(956) 316-1558
3950	1721 S Mechanic St	El Campo	TX	77437	(979) 578-8981
878	9004 Dyer St	El Paso	TX	79904	(915) 751-0581
877	6700 Montana Ave	El Paso	TX	79925	(915) 778-5822
883	1115 McRae Blvd	El Paso	TX	79925	(915) 594-6608
876	5519 W Alameda Ave	El Paso	TX	79905	(915) 772-5533
886	12207 Montwood Dr	El Paso	TX	79938	(915) 856-0736
885	8040 N Mesa St	El Paso	TX	79932	(915) 760-4995
880	5350 Montana Ave	El Paso	TX	79903	(915) 772-9863
875	4160 N Mesa Dr	El Paso	TX	79902	(915) 545-2494
4804	655 Redd Rd	El Paso	TX	79912	(915) 760-4616
882	1448 N Lee Trevino Dr	El Paso	TX	79936	(915) 590-0990
3991	409 E Edinburg Ave	Elsa	TX	78543	(956) 262-8508
775	1102 E Ennis Ave	Ennis	TX	75119	(972) 875-8021
4707	3001 W Euless Blvd	Euless	TX	76040	(817) 571-7501
3841	206 N Main St	Euless	TX	76039	(817) 685-6210
3763	691 W Us Highway 84	Fairfield	TX	75840	(903) 389-2186
743	3206 Belt Line Rd	Farmers Branch	TX	75234	(972) 243-7588
717	14050 Harry Hines Blvd	Farmers Branch	TX	75234	(972) 243-7979
4781	400 S Interstate Highway 45	Ferris	TX	75125	(972) 544-2375
4783	769 E Us Highway 80	Forney	TX	75126	(972) 552-5803
786	2802 N Main St	Fort Worth	TX	76106	(817) 624-2900
3827	8651 Anderson Blvd	Fort Worth	TX	76120	(817) 861-2293
3721	7065 Ridgmar Meadow Rd	Fort Worth	TX	76116	(817) 377-3721
3834	1500 S University Dr	Fort Worth	TX	76107	(817) 877-0797
4730	8513 S Hulen St	Fort Worth	TX	76123	(817) 292-0236
3717	3459 Altamesa Blvd	Fort Worth	TX	76133	(817) 292-3398
3770	14100 Trinity Blvd	Fort Worth	TX	76155	(817) 358-9517
760	5031 E Lancaster Ave	Fort Worth	TX	76103	(817) 531-3780
3858	3008 Basswood Blvd	Fort Worth	TX	76137	(817) 306-6285
3727	4610 S Hulen St	Fort Worth	TX	76132	(817) 292-5025
3863	920 E Loop 820 N	Fort Worth	TX	76112	(817) 446-5056
3723	3308 Se Loop 820	Fort Worth	TX	76140	(817) 551-6367
759	2851 W Berry St	Fort Worth	TX	76109	(817) 921-2471
4792	7351 Oakmont Blvd	Fort Worth	TX	76132	(817) 292-5476
3766	5301 N Beach St	Fort Worth	TX	76137	(817) 306-9572
3705	804 E Seminary Dr	Fort Worth	TX	76115	(817) 924-7528
3806	200 W Loop 820 S	Fort Worth	TX	76108	(817) 367-6478
761	5930 Camp Bowie Blvd	Fort Worth	TX	76107	(817) 732-6881
4791	1001 South Fwy	Fort Worth	TX	76104	(817) 810-9384
3808	7960 South Fwy	Fort Worth	TX	76134	(817) 568-0060
751	3209 E Belknap St	Fort Worth	TX	76111	(817) 831-2404
752	515 S Henderson St	Fort Worth	TX	76104	(817) 336-7952
779	217 University Dr	Fort Worth	TX	76107	(817) 332-3992
754	2105 Seminary Dr	Fort Worth	TX	76115	(817) 926-9570
3961	2101 N Brazosport Blvd	Freeport	TX	77541	(979) 233-1011
3958	12331 Highway 6	Fresno	TX	77545	(281) 431-3833
3670	101 E Parkwood Ave	Friendswood	TX	77546	(281) 992-8035
4796	9133 Legacy Dr	Frisco	TX	75034	(214) 436-5415
741	219 N Grand Ave	Gainesville	TX	76240	(940) 665-2911
653	920 Seawall Blvd	Galveston	TX	77550	(409) 763-4121
645	2300 61st St	Galveston	TX	77551	(409) 744-3521
3771	4015 Bobtown Rd	Garland	TX	75043	(972) 303-4304
785	1001 W Centerville Rd	Garland	TX	75041	(972) 681-5141
767	3480 Arapaho Rd	Garland	TX	75044	(972) 530-6265
791	1382 Belt Line Rd	Garland	TX	75040	(972) 530-3831
711	335 S Garland Ave	Garland	TX	75040	(972) 276-7643
716	3101 S 1st St	Garland	TX	75041	(972) 278-0412
874	1001 Leander Rd	Georgetown	TX	78628	(512) 930-1206
4786	710 W University Ave	Georgetown	TX	78626	(512) 863-5725
3854	516 N Wood St	Gilmer	TX	75644	(903) 843-2665
3775	1703 S Beckley Rd	Glenn Heights	TX	75154	(972) 274-3417
3815	1010 Morgan St	Granbury	TX	76048	(817) 573-8093
763	101 E Main St	Grand Prairie	TX	75050	(972) 262-2396
746	2514 S Belt Line Rd	Grand Prairie	TX	75052	(972) 264-3177
3746	4004 S Belt Line Rd	Grand Prairie	TX	75052	(972) 642-3330
3737	2085 N Highway 360	Grand Prairie	TX	75050	(817) 640-1251
3798	3500 Grapevine Mills Pkwy #200	Grapevine	TX	76051	(972) 355-7508
3730	1290 William D Tate Ave	Grapevine	TX	76051	(817) 481-6493
772	6403 Wesley St	Greenville	TX	75402	(903) 454-1616
3789	1380 W Main St	Gun Barrel City	TX	75156	(903) 887-3131
3719	5200 E Belknap St	Haltom City	TX	76117	(817) 831-8378
3796	307 E Fm 2410 Rd	Harker Heights	TX	76548	(254) 680-7989
3653	322 S 77 Sunshine Strip	Harlingen	TX	78550	(956) 412-3964
3659	1406 W Tyler Ave	Harlingen	TX	78550	(956) 412-6322
3948	4714 S Expressway 83	Harlingen	TX	78552	(956) 365-3500
3959	1925 Fm 1488 Rd	Hempstead	TX	77445	(979) 921-0695
3975	520 S International Blvd	Hidalgo	TX	78557	(956) 843-2203
3935	302 N Main St Ste 3	Highlands	TX	77562	(281) 843-6622
3817	1405 Corsicana Hwy	Hillsboro	TX	76645	(254) 582-0443
3943	7728 Highway 6	Hitchcock	TX	77563	(409) 986-4443
3939	1765 W Mt Houston Rd	Houston	TX	77038	(281) 445-3911
3652	901 Dairy Ashford Rd	Houston	TX	77079	(281) 752-8616
3927	12446 Fm 1960 Rd W	Houston	TX	77065	(281) 897-9293
3691	10742 Veterans Memorial Dr	Houston	TX	77038	(281) 999-1555
3669	14540 Westheimer	Houston	TX	77077	(281) 496-4783
3931	5656 N Eldridge Pkwy	Houston	TX	77041	(713) 849-2076
3665	2901 Airline Dr	Houston	TX	77009	(713) 862-6643
4722	5248 Allum Rd	Houston	TX	77045	(713) 721-7808
3979	739 N Sam Houston Pkwy E	Houston	TX	77060	(281) 405-8140
3962	2709 Reed Rd	Houston	TX	77051	(713) 264-0832
3940	6325 Barker Cypress Rd	Houston	TX	77084	(832) 593-0882
3663	14775 North Fwy	Houston	TX	77090	(281) 875-1644
3986	5550 Gulfton St	Houston	TX	77081	(713) 218-9671
3960	10450 Huffmeister Rd	Houston	TX	77065	(281) 970-0992
692	11910 Westheimer Rd	Houston	TX	77077	(281) 496-3380
3967	8055 N Sam Houston Pkwy W	Houston	TX	77064	(281) 894-2638
3909	10454 Richmond Ave	Houston	TX	77042	(832) 251-9317
3972	1812 Ella Blvd	Houston	TX	77008	(713) 863-7495
3913	11605 S Sam Houston Pkwy E	Houston	TX	77089	(281) 464-3371
3914	16310 S Post Oak Rd	Houston	TX	77053	(281) 437-5516
3699	1217 Wayside Dr	Houston	TX	77011	(713) 928-6095
3698	8111 Airport Blvd	Houston	TX	77061	(713) 242-0896
3915	11912 Galveston Rd Ste A	Houston	TX	77034	(281) 484-7985
3695	12777 East Fwy	Houston	TX	77015	(713) 450-2403
3690	4550 San Felipe St	Houston	TX	77027	(713) 626-5771
3689	5850 Gulf Fwy	Houston	TX	77023	(713) 923-2188
3990	12680 Beechnut St	Houston	TX	77072	(281) 933-0064
3973	12102 Veterans Memorial Dr	Houston	TX	77067	(281) 893-0102
3683	2277 W Sam Houston Pkwy N	Houston	TX	77043	(713) 827-7618
3901	9310 Clay Rd	Houston	TX	77080	(713) 462-6308
3644	6006 Hillcroft Ave	Houston	TX	77081	(713) 271-7117
4803	6810 Bingle Rd	Houston	TX	77092	(713) 690-1210
665	9602 Mesa Dr	Houston	TX	77078	(713) 633-3584
4715	6060 Long Dr	Houston	TX	77087	(713) 242-7069
663	3907 Aldine Mail Rd	Houston	TX	77039	(281) 442-2477
658	7502 N Shepherd Dr	Houston	TX	77088	(713) 694-3248
651	2218 Little York Rd	Houston	TX	77093	(713) 697-3813
3600	11630 Hempstead Hwy	Houston	TX	77092	(713) 686-6103
3602	14754 Wallisville Rd	Houston	TX	77049	(713) 453-0325
649	1072 Edgebrook Dr	Houston	TX	77034	(713) 944-9234
644	7545 Park Place Blvd	Houston	TX	77087	(713) 643-5888
3605	11080 Scarsdale Blvd	Houston	TX	77089	(281) 484-2324
3606	5757 Hollister St	Houston	TX	77040	(713) 690-2329
640	4400 W Fuqua St	Houston	TX	77045	(713) 433-9510
3613	4232 Highway 6 N	Houston	TX	77084	(281) 550-8135
637	9645 Westheimer Rd	Houston	TX	77063	(713) 784-8946
4709	3601 Old Spanish Trail	Houston	TX	77021	(713) 747-1046
3615	7525 East Fwy	Houston	TX	77020	(713) 673-7525
666	11234 Airline Dr	Houston	TX	77037	(281) 448-6939
667	10004 Telephone Rd	Houston	TX	77075	(713) 991-2597
668	1602 Fm 1960 Rd W	Houston	TX	77090	(281) 444-7386
4767	3415 Navigation Blvd	Houston	TX	77003	(713) 224-5006
4766	7533 Harrisburg Blvd	Houston	TX	77012	(713) 928-8942
3675	7699 Katy Fwy	Houston	TX	77024	(713) 956-5777
4801	8497 S Sam Houston Pkwy E	Houston	TX	77075	(713) 987-9111
697	14555 Falling Creek Dr	Houston	TX	77014	(281) 444-6774
696	8601 W Bellfort St	Houston	TX	77031	(713) 771-3580
695	14521 Bellaire Blvd	Houston	TX	77083	(281) 530-8821
689	251 Greens Rd	Houston	TX	77060	(281) 876-2714
686	3402 Mangum Rd	Houston	TX	77092	(713) 681-9650
679	8000 Howard Dr	Houston	TX	77017	(713) 645-3612
4737	13351 Briar Forest Dr	Houston	TX	77077	(281) 920-0983
4736	14220 Cullen Blvd	Houston	TX	77047	(713) 738-8830
674	5316 Antoine Dr	Houston	TX	77091	(713) 686-3801
673	13706 State Highway 249	Houston	TX	77086	(281) 447-6343
672	8767 S Main St	Houston	TX	77025	(713) 661-5665
669	10806 Bissonnet St	Houston	TX	77099	(281) 498-4114
3616	2420 Bay Area Blvd	Houston	TX	77058	(281) 286-8107
3643	8603 Fm 1960 Rd W	Houston	TX	77070	(281) 955-0830
615	5715 Bellfort Ave	Houston	TX	77033	(713) 733-0496
618	8410 Hillcroft St	Houston	TX	77096	(713) 271-4438
620	5410 N Shepherd Dr	Houston	TX	77091	(713) 694-7394
621	4403 Fannin St	Houston	TX	77004	(713) 527-9065
623	1051 Uvalde Rd	Houston	TX	77015	(713) 453-3138
3630	12235 Jones Rd	Houston	TX	77070	(281) 894-7331
3629	3302 Richmond Ave	Houston	TX	77098	(713) 522-7890
624	5801 Bellaire Blvd	Houston	TX	77081	(713) 661-9296
3634	4920 W Bellfort St	Houston	TX	77035	(713) 728-5856
3636	19602 Tomball Pkwy	Houston	TX	77070	(281) 955-1642
3642	15819 John F Kennedy Blvd	Houston	TX	77032	(281) 987-8316
604	801 Telephone Rd	Houston	TX	77023	(713) 926-6437
606	2001 N Shepherd Dr	Houston	TX	77008	(713) 864-7455
3998	7045 Airline Dr	Houston	TX	77076	(713) 692-0555
3999	8923 E Sam Houston Pkwy N	Houston	TX	77044	(281) 459-9949
3639	10901 Bellaire Blvd	Houston	TX	77072	(281) 498-1352
3638	3110 W Dallas St	Houston	TX	77019	(713) 942-9524
609	9302 Jensen Dr	Houston	TX	77093	(713) 692-3013
625	9424 Homestead Rd	Houston	TX	77016	(713) 631-7370
627	3908 Bellaire Blvd	Houston	TX	77025	(713) 664-6919
3617	9429 Jones Rd	Houston	TX	77065	(281) 469-6856
3618	6902 Highway 6 N	Houston	TX	77084	(281) 550-9655
3619	3220 Montrose Blvd	Houston	TX	77006	(713) 520-0634
634	94 E Crosstimbers St	Houston	TX	77022	(713) 694-4956
3620	607 Fm 1960 Rd E	Houston	TX	77073	(281) 821-6077
633	1395 Federal Rd	Houston	TX	77015	(713) 455-1818
631	909 Shepherd Dr	Houston	TX	77007	(713) 861-0335
4701	11833 Barker Cypress Rd	Houston	TX	77433	(281) 256-6241
632	7221 Fondren Rd	Houston	TX	77036	(713) 271-4439
3625	2801 Hillcroft Ave	Houston	TX	77057	(713) 783-4977
3626	14643 Woodforest Blvd	Houston	TX	77015	(713) 451-8102
629	3425 Ella Blvd	Houston	TX	77018	(713) 681-2523
630	1419 Gessner Dr	Houston	TX	77080	(713) 464-9773
3672	7810 Fm 1960 Rd W	Humble	TX	77338	(281) 548-7374
3688	7019 N Sam Houston Pkwy E	Humble	TX	77396	(281) 441-3704
3981	7101 Will Clayton Pkwy	Humble	TX	77338	(281) 540-1578
4775	18 Wilson Rd	Humble	TX	77338	(281) 446-2398
3692	7417 Fm 1960 Rd E	Humble	TX	77346	(281) 812-4830
3920	21510 Aldine Westfield Rd	Humble	TX	77338	(281) 443-3562
678	2251 Sam Houston Ave	Huntsville	TX	77340	(936) 295-5821
4702	3005 State Highway 30 W	Huntsville	TX	77340	(936) 435-0588
3700	8601 W Bedford Euless Rd	Hurst	TX	76053	(817) 284-8614
757	444 W Bedford Euless Rd	Hurst	TX	76053	(817) 282-1717
3784	121 S Interstate 45 Service Rd	Hutchins	TX	75141	(972) 225-3480
3716	4206 W Airport Fwy	Irving	TX	75062	(972) 986-4250
787	925 N Loop 12	Irving	TX	75061	(972) 579-9439
725	502 N O Connor Rd	Irving	TX	75061	(972) 254-6504
721	2952 N Belt Line Rd	Irving	TX	75062	(972) 252-5011
3748	5340 Macarthur Blvd	Irving	TX	75038	(972) 751-1646
3732	515 W Airport Fwy	Irving	TX	75062	(972) 256-3484
4711	8655 Cypress Waters Blvd	Irving	TX	75063	(972) 556-2588
4782	2500 W Irving Blvd	Irving	TX	75061	(972) 986-7850
3818	1329 S Jackson St	Jacksonville	TX	75766	(903) 541-0408
4807	1007 S Wheeler St	Jasper	TX	75951	(409) 384-5611
3649	15824 Northwest Fwy	Jersey Village	TX	77040	(713) 849-5797
3993	20350 Park Row Blvd	Katy	TX	77449	(281) 492-8693
3603	903 S Mason Rd	Katy	TX	77450	(281) 579-6958
3941	25105 Market Place Dr	Katy	TX	77494	(281) 644-4330
3938	1480 S Grand Pkwy	Katy	TX	77494	(281) 693-4404
3955	3072 N Fry Rd	Katy	TX	77449	(281) 828-1404
4732	1904 S Washington St	Kaufman	TX	75142	(972) 932-3495
3793	103 N Main St	Keller	TX	76248	(817) 431-5225
3916	625 Highway 146	Kemah	TX	77565	(281) 334-9452
851	500 Sidney Baker St	Kerrville	TX	78028	(830) 257-2888
3839	745 Us Highway 259 N	Kilgore	TX	75662	(903) 988-8186
3852	1100 E Central Texas Expy	Killeen	TX	76541	(254) 690-2055
3864	5301 W Stan Schlueter Loop	Killeen	TX	76549	(254) 634-0924
838	3201 E Veterans Memorial Blvd	Killeen	TX	76543	(254) 699-5944
4710	3800 E Elms Rd	Killeen	TX	76542	(254) 680-0078
818	210 W Rancier Ave	Killeen	TX	76541	(254) 526-4777
3631	2308 Northpark Dr	Kingwood	TX	77339	(281) 359-5225
4761	5061 Kyle Center Dr	Kyle	TX	78640	(512) 268-7106
671	4308 Texas Ave	La Marque	TX	77568	(409) 935-2252
3693	1018 Highway 146 S	La Porte	TX	77571	(281) 470-7060
4733	9629 W Fairmont Pkwy	La Porte	TX	77571	(281) 542-9730
3934	165 Oyster Creek Dr	Lake Jackson	TX	77566	(979) 297-6468
797	6352 Lake Worth Blvd	Lake Worth	TX	76135	(817) 237-1062
4750	1448 W Pleasant Run Rd	Lancaster	TX	75146	(972) 227-2243
3983	4502 S Zapata Hwy	Laredo	TX	78046	(956) 724-2793
3662	5106 Mcpherson Ave	Laredo	TX	78041	(956) 717-1881
3677	3501 San Dario Ave	Laredo	TX	78041	(956) 725-6616
3673	2612 Cortez St	Laredo	TX	78043	(956) 712-9116
3922	7101 San Dario Ave	Laredo	TX	78045	(956) 726-8187
946	5002 Saunders St	Laredo	TX	78041	(956) 723-3675
3666	1908 E Main St	League City	TX	77573	(281) 338-9328
4793	1665 W Fm 646 Rd	League City	TX	77573	(281) 534-1079
795	1563 W Main St	Lewisville	TX	75067	(214) 222-7850
3845	732 Hebron Pkwy	Lewisville	TX	75057	(972) 459-9323
3910	2320 N Main St	Liberty	TX	77575	(936) 336-1009
3977	313 E Church St	Livingston	TX	77351	(936) 327-8225
3810	490 E Loop 281	Longview	TX	75605	(903) 758-0193
3807	507 N Access Rd	Longview	TX	75602	(903) 758-1890
3847	722 W Marshall Ave	Longview	TX	75601	(903) 234-8898
4822	2414 Mac Davis Ln	Lubbock	TX	79401	(806) 767-9700
4821	5212 4th St	Lubbock	TX	79416	(806) 792-6800
4815	5110 98th St	Lubbock	TX	79424	(806) 794-5222
4814	4328 50th St	Lubbock	TX	79413	(806) 780-5225
3801	1902 E Denman Ave	Lufkin	TX	75901	(936) 634-2011
3783	1903 W Frank St	Lufkin	TX	75904	(936) 634-1985
3926	190 S Main St	Lumberton	TX	77657	(409) 751-4445
3816	3000 E Main St	Madisonville	TX	77864	(936) 349-0881
3949	6734 Fm 1488 Rd	Magnolia	TX	77354	(281) 252-3596
3987	17607 Fm 1488 Rd	Magnolia	TX	77354	(281) 259-3965
3760	1782 Highway 157 N	Mansfield	TX	76063	(817) 453-0313
3911	17502 Highway 6	Manvel	TX	77578	(281) 489-3533
3953	3701 Pecan Blvd	Mcallen	TX	78501	(956) 687-3205
3660	909 Pecan Blvd	Mcallen	TX	78501	(956) 682-7229
3988	7500 N 10th St	Mcallen	TX	78504	(956) 631-4851
3971	2900 W Nolana Loop	Mcallen	TX	78504	(956) 688-6538
3661	151 W Nolana St	Mcallen	TX	78504	(956) 687-6909
3658	1601 S 23rd St	Mcallen	TX	78503	(956) 618-2234
778	1825 W University Dr	Mckinney	TX	75069	(972) 562-5625
750	2001 N Town East Blvd	Mesquite	TX	75150	(972) 681-1011
3736	1150 Us Highway 67	Mesquite	TX	75150	(972) 613-6875
728	311 S Galloway Ave	Mesquite	TX	75149	(972) 285-5889
782	1728 Scyene Rd	Mesquite	TX	75149	(972) 288-5706
3702	2100 N Galloway Ave	Mesquite	TX	75150	(972) 289-3947
4795	2208 Rankin Hwy	Midland	TX	79701	(432) 684-8900
4743	5205 W Wadley Ave	Midland	TX	79707	(432) 694-0500
3792	1110 E Main St	Midlothian	TX	76065	(972) 723-1285
764	2008 E Hubbard St	Mineral Wells	TX	76067	(940) 325-5561
3655	1401 E Expressway 83	Mission	TX	78572	(956) 584-1728
3624	6151 Highway 6	Missouri City	TX	77459	(281) 499-9443
3963	13915 Fondren Rd	Missouri City	TX	77489	(281) 438-1388
3937	14640 Highway 105 W	Montgomery	TX	77356	(936) 447-6300
4739	106 W Fm 544	Murphy	TX	75094	(972) 881-1319
3787	2015 North St	Nacogdoches	TX	75965	(936) 568-9690
4811	3200 Ih 35	New Braunfels	TX	78130	(830) 626-0076
827	1260 S Seguin Ave	New Braunfels	TX	78130	(830) 608-0240
3682	20130 Us Highway 59	New Caney	TX	77357	(281) 399-8988
4788	8416 Davis Blvd	North Richland Hills	TX	76180	(817) 656-6070
755	6501 Grapevine Hwy	North Richland Hills	TX	76180	(817) 284-1301
4742	3911 E 42nd St	Odessa	TX	79762	(432) 368-5000
4799	2672 N County Rd W	Odessa	TX	79763	(432) 335-8700
3651	7247 Interstate 10 E	Orange	TX	77630	(409) 882-9961
3919	2900 N 16th St	Orange	TX	77630	(409) 883-2661
3819	2207 W Oak St	Palestine	TX	75801	(903) 723-6233
4716	223 E Mile 3 Rd	Palmhurst	TX	78573	(956) 580-8951
3679	105 W Palma Vista Dr	Palmview	TX	78572	(956) 519-7807
781	2501 W Pioneer Pkwy	Pantego	TX	76013	(817) 275-4602
3850	3110 Ne Loop 286	Paris	TX	75460	(903) 784-5119
3628	4104 Fairmont Pkwy	Pasadena	TX	77504	(281) 998-7663
4725	2103 E Sam Houston Pkwy S	Pasadena	TX	77503	(713) 589-0337
3944	903 Pasadena Blvd	Pasadena	TX	77506	(713) 475-8061
641	7447 Spencer Hwy	Pasadena	TX	77505	(281) 479-5889
698	221 Richey St	Pasadena	TX	77506	(713) 472-5444
3974	3426 Main St Ste 102	Pearland	TX	77581	(281) 485-4840
3907	2702 Reid Blvd	Pearland	TX	77581	(281) 485-6669
3929	1521 Broadway St	Pearland	TX	77581	(281) 993-0078
864	14910 Fm 1825	Pflugerville	TX	78660	(512) 251-2576
4760	1700 Fm 685	Pflugerville	TX	78660	(512) 252-7834
3984	6521 S Cage Blvd	Pharr	TX	78577	(956) 702-2896
3954	703 S Jackson Rd	Pharr	TX	78577	(956) 782-4500
784	201 W Parker Rd	Plano	TX	75023	(972) 423-0524
3836	5960 Dallas Pkwy	Plano	TX	75093	(972) 473-7618
3729	1405 N Central Expy	Plano	TX	75075	(972) 881-2853
3778	905 Legacy Dr	Plano	TX	75023	(972) 527-7367
3762	1205 Jupiter Rd	Plano	TX	75074	(972) 423-0826
647	4001 Twin City Hwy	Port Arthur	TX	77642	(409) 962-0333
4797	4640 Highway 365	Port Arthur	TX	77642	(409) 724-1644
3671	2840 Highway 365	Port Arthur	TX	77640	(409) 722-3022
3965	706 Magnolia Ave	Port Neches	TX	77651	(409) 727-2887
3946	23183 Fm 1314 Rd	Porter	TX	77365	(281) 354-4087
4744	200 E Princeton Dr	Princeton	TX	75407	(972) 736-3262
4818	510 W Arapaho Rd	Richardson	TX	75080	(972) 807-9264
745	1350 S Plano Rd	Richardson	TX	75081	(972) 234-8844
3838	2230 N Coit Rd	Richardson	TX	75080	(972) 907-2260
4755	1418 Crabb River Rd	Richmond	TX	77469	(281) 545-1609
4817	7975 W Grand Pkwy S Ste 100	Richmond	TX	77469	(281) 232-7225
4734	8102 Fm 1464 Rd	Richmond	TX	77407	(281) 242-5684
3968	4600 E Us Highway 83	Rio Grande City	TX	78582	(956) 488-2126
3725	2808 Ridge Rd	Rockwall	TX	75032	(972) 771-4988
3932	201 E Grant St	Roma	TX	78584	(956) 847-1905
660	5004 Avenue H	Rosenberg	TX	77471	(281) 342-7707
3641	3317 1st St	Rosenberg	TX	77471	(281) 341-1686
917	3760 Gattis School Rd	Round Rock	TX	78664	(512) 828-0380
839	2120 S Interstate 35	Round Rock	TX	78681	(512) 388-2409
910	1121 E Palm Valley Blvd	Round Rock	TX	78664	(512) 341-8707
911	16330 R R 620	Round Rock	TX	78681	(512) 733-6330
3756	5410 Rowlett Rd	Rowlett	TX	75089	(972) 475-6881
3795	100 E Interstate 30	Royse City	TX	75189	(972) 635-2455
3809	101 N Saginaw Blvd	Saginaw	TX	76179	(817) 847-1984
909	2866 Thousand Oaks Dr	San Antonio	TX	78232	(210) 545-1262
908	3523 Se Military Dr	San Antonio	TX	78223	(210) 359-6060
903	3706 S Zarzamora St	San Antonio	TX	78225	(210) 922-3769
901	9263 Culebra Rd	San Antonio	TX	78251	(210) 256-0378
900	5850 Culebra Rd	San Antonio	TX	78228	(210) 432-0474
870	15037 Nacogdoches Rd	San Antonio	TX	78247	(210) 655-7991
868	7720 Fm 78	San Antonio	TX	78244	(210) 666-6979
859	11615 N IH 35	San Antonio	TX	78233	(210) 967-9255
923	6405 Nw Loop 410	San Antonio	TX	78238	(210) 509-8499
950	2922 Sw Loop 410	San Antonio	TX	78224	(210) 624-2238
944	1214 W Old Us Highway 90	San Antonio	TX	78227	(210) 432-1093
915	3702 Sw Military Dr	San Antonio	TX	78211	(210) 921-1364
926	2235 Ne Loop 410	San Antonio	TX	78217	(210) 653-0860
930	11729 Bandera Rd	San Antonio	TX	78250	(210) 682-0091
914	523 Fair Ave	San Antonio	TX	78223	(210) 533-3761
933	4606 Rittiman Rd	San Antonio	TX	78218	(210) 666-8731
934	2311 Fredericksburg Rd	San Antonio	TX	78201	(210) 736-1976
4723	21034 Us Highway 281 N	San Antonio	TX	78258	(210) 497-7659
942	10418 Perrin Beitel Rd Ste 102	San Antonio	TX	78217	(210) 564-8318
935	7150 San Pedro Ave	San Antonio	TX	78216	(210) 524-0058
4719	506 New Valley Hi Dr	San Antonio	TX	78227	(210) 673-5582
913	2100 Culebra Rd	San Antonio	TX	78228	(210) 734-9510
936	903 Probandt St	San Antonio	TX	78204	(210) 223-4415
940	718 S Zarzamora St	San Antonio	TX	78207	(210) 432-2568
858	1818 N Foster Rd	San Antonio	TX	78244	(210) 666-4140
857	2209 Sw Military Dr	San Antonio	TX	78224	(210) 923-3115
833	6811 Bandera Rd	San Antonio	TX	78238	(210) 680-0762
829	118 N General Mcmullen Dr	San Antonio	TX	78237	(210) 432-6624
822	1331 Sw Loop 410	San Antonio	TX	78227	(210) 674-5750
819	7206 Blanco Rd	San Antonio	TX	78216	(210) 344-4453
817	6811 W Military Dr	San Antonio	TX	78227	(210) 674-4647
814	502 N New Braunfels Ave	San Antonio	TX	78202	(210) 226-6875
809	4319 Vance Jackson Rd	San Antonio	TX	78230	(210) 342-8555
808	5423 Evers Rd	San Antonio	TX	78238	(210) 681-0090
807	3315 San Pedro Ave	San Antonio	TX	78212	(210) 734-8446
806	742 Sw Military Dr	San Antonio	TX	78221	(210) 924-2151
805	303 San Pedro Ave	San Antonio	TX	78212	(210) 223-5954
803	3006 Broadway St	San Antonio	TX	78209	(210) 822-4047
941	8558 Huebner Rd Ste 102 Bldg 1	San Antonio	TX	78240	(210) 697-1574
834	5398 Walzem Rd	San Antonio	TX	78218	(210) 656-4783
856	1619 Bandera Rd	San Antonio	TX	78228	(210) 433-9714
847	5311 Rigsby Ave	San Antonio	TX	78222	(210) 337-0847
849	190 W Bitters Rd	San Antonio	TX	78216	(210) 490-0849
853	2465 Babcock Rd	San Antonio	TX	78229	(210) 615-7328
4772	5509 Roosevelt Ave	San Antonio	TX	78214	(210) 627-2727
871	10683 Huebner Rd Ste 101	San Antonio	TX	78240	(210) 877-1219
854	4626 Fredericksburg Rd	San Antonio	TX	78201	(210) 734-8945
4773	11211 Potranco Rd	San Antonio	TX	78253	(210) 679-5084
855	9330 Wurzbach Rd	San Antonio	TX	78240	(210) 593-0420
3678	692 S Sam Houston Blvd	San Benito	TX	78586	(956) 361-1616
3667	902 Raul Longoria Rd	San Juan	TX	78589	(956) 781-4339
866	2207 S Interstate 35	San Marcos	TX	78666	(512) 392-2338
820	345 N L B J Dr	San Marcos	TX	78666	(512) 353-7308
3794	903 N Stemmons Fwy	Sanger	TX	76266	(940) 458-7182
3906	13620 Highway 6	Santa Fe	TX	77517	(409) 925-5023
844	17501 Interstate 35 N	Schertz	TX	78154	(210) 651-5911
646	4457 Nasa Pkwy # 1	Seabrook	TX	77586	(281) 326-4063
3811	600 W Malloy Bridge Rd	Seagoville	TX	75159	(972) 287-8499
4706	2367 Highway 36 S	Sealy	TX	77474	(979) 885-6202
830	1070 E Court St	Seguin	TX	78155	(830) 372-1558
861	1810 W Ih 10	Seguin	TX	78155	(830) 379-6394
3842	100 W Fm 1417	Sherman	TX	75092	(903) 868-4805
737	2133 Texoma Pkwy	Sherman	TX	75090	(903) 893-2919
4778	150 Highway 327 E	Silsbee	TX	77656	(409) 386-6121
3614	1503 Spencer Hwy	South Houston	TX	77587	(713) 944-1849
4774	1202 College Ave	South Houston	TX	77587	(713) 947-8507
3992	14699 Highway 59	Splendora	TX	77372	(281) 689-2645
690	25060 Interstate 45	Spring	TX	77386	(281) 367-2188
3923	4720 Spring Cypress Rd	Spring	TX	77379	(281) 374-0361
3976	25520 Aldine Westfield Rd	Spring	TX	77373	(281) 528-0791
3635	19715 Holzwarth Rd	Spring	TX	77388	(281) 355-1258
4738	2685 Rayford Rd	Spring	TX	77386	(832) 813-0996
659	16802 Stuebner Airline Rd	Spring	TX	77379	(281) 376-5340
4704	3842 Fm 2920 Rd	Spring	TX	77388	(281) 651-9815
3696	12175 Southwest Fwy	Stafford	TX	77477	(281) 530-0199
681	3204 S Main St	Stafford	TX	77477	(281) 261-9503
3828	2801 W Washington St	Stephenville	TX	76401	(254) 918-5002
4731	13325 W Airport Blvd	Sugar Land	TX	77478	(281) 494-3312
3903	11706 S Highway 6	Sugar Land	TX	77478	(281) 568-8193
3904	1744 Dulles Ave	Sugar Land	TX	77478	(281) 491-6161
3622	13124 S Dairy Ashford Rd	Sugar Land	TX	77478	(281) 242-5705
3790	110 Shannon Rd W	Sulphur Springs	TX	75482	(903) 438-8069
924	3120 N Main St #b	Taylor	TX	76574	(512) 365-6116
3862	3608 Sw Hk Dodgen Loop	Temple	TX	76502	(254) 742-0195
816	204 W Adams Ave	Temple	TX	76501	(254) 778-4571
3774	1898 W Moore Ave	Terrell	TX	75160	(972) 551-0105
635	2101 Palmer Hwy	Texas City	TX	77590	(409) 948-1481
3623	2101 Fm 2004 Rd	Texas City	TX	77591	(409) 986-7297
3821	4683 Highway 121	The Colony	TX	75056	(972) 624-1169
3908	7950 Research Forest Dr	The Woodlands	TX	77382	(281) 367-6931
3657	1250 Lake Woodlands Dr	The Woodlands	TX	77380	(281) 363-4143
3969	11214 Fm 2920 Rd	Tomball	TX	77375	(281) 516-1401
4714	24040 Kuykendahl Rd	Tomball	TX	77375	(281) 516-1781
3980	16003 Fm 2920 Rd	Tomball	TX	77375	(281) 255-2163
3608	28423 Tomball Pkwy	Tomball	TX	77375	(281) 351-5633
3803	1703 S Broadway Ave	Tyler	TX	75701	(903) 592-8841
3805	121 N Northwest Loop 323	Tyler	TX	75702	(903) 596-7739
3804	6915 S Broadway Ave	Tyler	TX	75703	(903) 939-9632
850	208  N Pat Booker Rd	Universal City	TX	78148	(210) 658-8562
932	801 E Main St	Uvalde	TX	78801	(830) 486-0500
4745	121 S Henry Hynds Expy	Van Alstyne	TX	75495	(903) 482-9450
4764	1510 E Rio Grande St	Victoria	TX	77901	(361) 574-8649
4780	5229 N Navarro Dr	Victoria	TX	77904	(361) 579-9711
4718	1315 N Main St	Vidor	TX	77662	(409) 769-0542
832	5125 Bosque Blvd	Waco	TX	76710	(254) 776-0097
835	725 University Parks Dr	Waco	TX	76706	(254) 755-7009
3813	1724 S Valley Mills Dr	Waco	TX	76711	(254) 754-7514
852	201 Hewitt Dr	Waco	TX	76712	(254) 772-3600
3925	31014 Fm 2920 Rd	Waller	TX	77484	(936) 931-3519
3966	22902 Interstate 10	Wallisville	TX	77597	(409) 389-2451
3720	6241 Rufe Snow Dr	Watauga	TX	76148	(817) 581-7391
3785	1204 N Highway 77	Waxahachie	TX	75165	(972) 923-9323
3800	2002 Clear Lake Rd	Weatherford	TX	76086	(817) 594-3689
733	804 S Main St	Weatherford	TX	76086	(817) 594-1246
3930	3134 Fm 528 Rd	Webster	TX	77598	(281) 993-2044
3621	418 El Dorado Blvd	Webster	TX	77598	(281) 286-4816
3933	1538 N Texas Blvd	Weslaco	TX	78596	(956) 973-0018
4735	801 S 17th St	West Columbia	TX	77486	(979) 345-2110
676	815 N Sepulveda Blvd	Wharton	TX	77488	(979) 532-5022
4769	8700 West Fwy	White Settlement	TX	76108	(817) 246-1224
4771	3125 Lawrence Rd	Wichita Falls	TX	76308	(940) 689-9100
4828	2610 Central Freeway	Wichita Falls	TX	76306	(000) 000-0000
3640	910 W Montgomery St	Willis	TX	77378	(936) 856-9779
3921	350 Spur 5	Winnie	TX	77665	(409) 296-3118
3994	102 N Magnolia St	Woodville	TX	75979	(409) 331-1136
3826	201 S Highway 78	Wylie	TX	75098	(972) 442-6118
location_id	address	city	state	zip	phone
8128	15255 E 38th Ave	Aurora	CO	80011	(303) 371-1501
8137	15399 E Mississippi Ave	Aurora	CO	80017	(000) 000-0000
8162	64 W Bromley Lane	Brighton	CO	80601	(303) 659-6649
8155	4640 W 121st Ave	Broomfield	CO	80020	(303) 469-2453
8140	2105 W 136th Ave	Broomfield	CO	80023	(303) 280-8266
8147	1940 Coalton Rd	Broomfield	CO	80021	(303) 465-3667
8157	27 Wolfensberger Rd	Castle Rock	CO	80109	(303) 660-5114
8143	3690 New Center Point Blvd	Colorado Springs	CO	80922	(719) 573-6229
8142	3654 Austin Bluffs Pkwy	Colorado Springs	CO	80918	(719) 268-6967
8136	6015 E Parkway Dr	Commerce City	CO	80022	(303) 287-8274
8160	2020 S Federal Blvd	Denver	CO	80219	(303) 934-4435
8145	6314 S US Highway 85-87	Fountain	CO	80817	(719) 391-8701
8130	16750 W Colfax Ave	Golden	CO	80401	(303) 384-3783
8156	1108 Cpl Max Donahue Ln	Highlands Ranch	CO	80129	(303) 346-0876
8149	1743 N Main St	Longmont	CO	80501	(303) 772-0341
8131	11179 S Pikes Peak Dr	Parker	CO	80138	(303) 840-1807
8141	9870 Mangano Ln	Parker	CO	80134	(303) 805-9257
8151	3206 W Northern Ave	Pueblo	CO	81005	(719) 564-8151
8159	910 W US Highway 50	Pueblo	CO	81008	(719) 542-8159
8135	9703 Washington St	Thornton	CO	80229	(303) 920-1214
8138	7311 Sheridan Blvd	Westminster	CO	80003	(720) 540-4233
8129	5165 Kipling St	Wheat Ridge	CO	80033	(303) 423-0169
location_id	address	city	state	zip	phone
1261	3501 State Highway 528 NW	Albuquerque	NM	87114	(505) 898-5205
1264	2721 Carlisle Blvd Ne	Albuquerque	NM	87110	(505) 888-8954
1265	10100 Central Ave Se	Albuquerque	NM	87123	(505) 332-9282
1266	5000 Montgomery Blvd Ne	Albuquerque	NM	87111	(505) 884-0816
1267	7601 Menaul Blvd Ne	Albuquerque	NM	87110	(505) 293-1504
1268	301 98th St Nw	Albuquerque	NM	87121	(000) 000-0000
1258	501 S Telshor Blvd	Las Cruces	NM	88011	(575) 522-3740
1263	3609 Nm 528 NE	Rio Rancho	NM	87144	(505) 771-2100
location_id	address	city	state	zip	phone
1305	1596 S Convention Center Dr	Saint George	UT	84790	(435) 986-0284
1306	775 W Telegraph St	Washington	UT	84780	(435) 656-4450
location_id	address	city	state	zip	phone
1537	39526 N Gavilan Peak Pkwy	Anthem	AZ	85086	(623) 551-3380
1538	2600 W Apache Trl	Apache Junction	AZ	85120	(480) 671-1061
1139	13088 W Rancho Santa Fe Blvd	Avondale	AZ	85392	(623) 935-4141
1564	250 N Avondale Blvd	Avondale	AZ	85323	(623) 932-2058
1511	775 N Ocotillo Rd	Benson	AZ	85602	(520) 586-2235
1547	1460 S Watson Rd	Buckeye	AZ	85326	(623) 691-6042
1122	2350 Miracle Mile Ste 100	Bullhead City	AZ	86442	(928) 758-5828
149	1194 E Florence Blvd	Casa Grande	AZ	85222	(520) 836-0304
1148	29815 N Tatum Blvd	Cave Creek	AZ	85331	(480) 473-8291
1526	955 E Riggs Rd	Chandler	AZ	85249	(480) 802-7807
138	141 N Arizona Ave	Chandler	AZ	85225	(480) 963-7187
1140	4900 W Ray Rd	Chandler	AZ	85226	(480) 775-4660
1142	900 N Cooper Rd	Chandler	AZ	85225	(480) 821-5027
1518	2070 N Dobson Rd	Chandler	AZ	85224	(480) 792-0649
1548	4250 S Arizona Ave	Chandler	AZ	85248	(480) 895-1903
1144	1790 W Chandler Blvd	Chandler	AZ	85224	(480) 726-3758
1195	2090 N Arizona Ave	Chandler	AZ	85225	(480) 821-5671
1121	1180 S Highway 260	Cottonwood	AZ	86326	(928) 639-1261
141	505 S Milton Rd	Flagstaff	AZ	86001	(928) 774-1723
1198	3620 E Route 66	Flagstaff	AZ	86004	(928) 526-8775
1501	4361 E Baseline Rd	Gilbert	AZ	85234	(480) 558-0302
1502	1585 E Warner Rd	Gilbert	AZ	85296	(480) 503-2533
1549	4910 S Val Vista Dr	Gilbert	AZ	85296	(480) 782-1845
1170	9021 N 59th Ave	Glendale	AZ	85302	(623) 937-0491
1176	5104 W Thunderbird Ave	Glendale	AZ	85306	(602) 938-2074
1500	20209 N 59th Ave	Glendale	AZ	85308	(623) 362-3564
125	5447 W Glendale Ave	Glendale	AZ	85301	(623) 931-9516
117	5145 N 59th Ave	Glendale	AZ	85301	(623) 931-6649
1184	4305 W Bethany Home Rd	Glendale	AZ	85301	(623) 931-0026
1135	13820 W Glendale Ave	Glendale	AZ	85307	(623) 535-8377
1160	1390 E Ash St	Globe	AZ	85501	(928) 425-5522
1503	6478 E Us Highway 60	Gold Canyon	AZ	85118	(480) 288-5430
1536	520 N Estrella Pkwy	Goodyear	AZ	85338	(623) 925-5521
1578	16900 W Yuma Rd	Goodyear	AZ	85338	(623) 925-8263
1129	3301 Andy Devine Ave	Kingman	AZ	86401	(928) 757-7374
1177	30 S Lake Havasu Ave	Lake Havasu City	AZ	86403	(928) 855-1145
1541	5115 W Southern Ave	Laveen	AZ	85339	(602) 237-0502
1544	20975 N John Wayne Pkwy	Maricopa	AZ	85139	(520) 568-1943
1507	1105 S Val Vista Dr	Mesa	AZ	85204	(480) 324-1623
1146	2719 N Power Rd	Mesa	AZ	85215	(480) 325-9746
1519	1403 S Crismon Rd	Mesa	AZ	85209	(480) 357-3731
1133	1911 S Power Rd	Mesa	AZ	85206	(480) 654-0232
1186	2120 E Baseline Rd	Mesa	AZ	85204	(480) 497-2795
1178	2846 E Main St	Mesa	AZ	85213	(480) 832-9581
1179	1232 W Baseline Rd	Mesa	AZ	85202	(480) 838-0677
1165	1860 W Southern Ave	Mesa	AZ	85202	(480) 964-9548
1555	5207 S Power  Rd	Mesa	AZ	85212	(480) 279-2536
1199	1945 W Main St	Mesa	AZ	85201	(480) 733-7997
148	1145 W University Dr	Mesa	AZ	85201	(480) 833-1339
1516	427 W Mckellips Rd	Mesa	AZ	85201	(480) 890-7200
1171	440 E Southern Ave	Mesa	AZ	85204	(480) 962-1938
1508	525 N Stapley Dr	Mesa	AZ	85203	(480) 610-5302
1156	5961 E Main St	Mesa	AZ	85205	(480) 832-3481
1175	208 N Grand Ave	Nogales	AZ	85621	(520) 287-5266
1539	383 W Mariposa Rd	Nogales	AZ	85621	(520) 377-2974
1149	931 Highway 89	Page	AZ	86046	(928) 645-2711
1136	301 E State Highway 260	Payson	AZ	85541	(928) 472-8060
1145	9066 W Olive Ave	Peoria	AZ	85345	(623) 486-3938
1513	8236 W Deer Valley Rd	Peoria	AZ	85382	(623) 566-7988
1131	8225 W Bell Rd	Peoria	AZ	85382	(623) 487-1941
1572	9831 W  Happy Valley Rd	Peoria	AZ	85383	(623) 561-1610
1103	7425 W Cactus Rd	Peoria	AZ	85381	(623) 878-0002
1180	5814 S Central Ave	Phoenix	AZ	85040	(602) 276-2183
1172	6001 W Thomas Rd	Phoenix	AZ	85033	(623) 247-1746
101	1833 W Van Buren St	Phoenix	AZ	85007	(602) 254-9324
1576	2645 W Carefree Hwy	Phoenix	AZ	85085	(623) 587-9515
1517	8225 W Camelback Rd	Phoenix	AZ	85033	(623) 849-0630
1560	2113 W Happy Valley Rd	Phoenix	AZ	85085	(623) 869-5006
1181	2701 W Camelback Rd	Phoenix	AZ	85017	(602) 249-0170
1553	2420 E Beardsley Rd	Phoenix	AZ	85050	(602) 485-4030
1520	3502 W Buckeye Rd	Phoenix	AZ	85009	(602) 353-1660
1522	9050 W Thomas Rd	Phoenix	AZ	85037	(623) 872-1375
1524	620 E Buckeye Rd	Phoenix	AZ	85004	(602) 258-6305
1525	2141 W Deer Valley Rd	Phoenix	AZ	85027	(623) 582-0894
1529	1921 W Broadway Rd	Phoenix	AZ	85041	(602) 305-9019
1533	2330 E Baseline Rd	Phoenix	AZ	85042	(602) 243-5585
1193	6351 N 7th St	Phoenix	AZ	85014	(602) 241-1433
1192	3150 E Washington St	Phoenix	AZ	85034	(602) 275-5083
1190	4151 W Bell Rd	Phoenix	AZ	85053	(602) 843-5716
1535	2711 S 40th St	Phoenix	AZ	85034	(602) 437-0706
1183	4749 E Southern Ave	Phoenix	AZ	85042	(602) 438-0578
1182	7850 N 35th Ave	Phoenix	AZ	85051	(602) 841-1350
1552	6120 S 35th Ave	Phoenix	AZ	85041	(602) 276-3653
1514	9920 W Indian School Rd	Phoenix	AZ	85037	(623) 772-1600
1153	17017 N Cave Creek Rd	Phoenix	AZ	85032	(602) 971-9496
1116	1001 N 24th St	Phoenix	AZ	85008	(602) 244-8860
1141	19818 N 27th Ave	Phoenix	AZ	85027	(623) 780-3669
134	4343 E Camelback Rd	Phoenix	AZ	85018	(602) 952-9906
142	1935 W Thunderbird Rd	Phoenix	AZ	85023	(602) 993-8810
1130	4950 E Ray Rd	Phoenix	AZ	85044	(480) 496-9168
143	12223 N 32nd St	Phoenix	AZ	85032	(602) 992-1030
144	3512 W Thunderbird Rd	Phoenix	AZ	85053	(602) 938-8340
145	1802 W Bell Rd	Phoenix	AZ	85023	(602) 866-9048
1102	2520 W Glendale Ave	Phoenix	AZ	85051	(602) 995-3677
1105	4741 E Mcdowell Rd	Phoenix	AZ	85008	(602) 275-0303
1110	2440 W Thomas Rd	Phoenix	AZ	85015	(602) 256-7223
1114	1902 W Buckeye Rd	Phoenix	AZ	85009	(602) 253-8142
1147	4020 E Bell Rd	Phoenix	AZ	85032	(602) 953-5495
129	4313 W Thomas Rd	Phoenix	AZ	85031	(602) 278-3971
127	3215 N Central Ave	Phoenix	AZ	85012	(602) 265-2995
102	1302 E Mcdowell Rd	Phoenix	AZ	85006	(602) 254-1756
103	2202 E Indian School Rd	Phoenix	AZ	85016	(602) 954-9130
105	3545 E Thomas Rd	Phoenix	AZ	85018	(602) 956-3020
108	3455 W Mcdowell Rd	Phoenix	AZ	85009	(602) 278-0529
112	132 W Mcdowell Rd	Phoenix	AZ	85003	(602) 253-8666
116	4119 N 7th St	Phoenix	AZ	85014	(602) 274-3914
106	1601 E Van Buren St	Phoenix	AZ	85006	(602) 252-1533
1154	7510 W Indian School Rd	Phoenix	AZ	85033	(623) 849-3022
123	8951 N 19th Ave	Phoenix	AZ	85021	(602) 944-0710
1100	10621 N 43rd Ave	Phoenix	AZ	85029	(602) 439-4843
1540	3182 Willow Creek Rd	Prescott	AZ	86301	(928) 771-0182
1159	415 E Gurley St	Prescott	AZ	86301	(928) 778-1740
1512	7622 E State Route 69	Prescott Valley	AZ	86314	(928) 759-7227
1574	21292 E Ocotillo Rd	Queen Creek	AZ	85142	(480) 655-6027
1542	534 E Hunt Hwy	Queen Creek	AZ	85143	(480) 458-5225
1128	23396 S Main St	San Luis	AZ	85349	(928) 627-2276
147	7116 E Shea Blvd	Scottsdale	AZ	85254	(480) 991-0820
1189	13610 N Scottsdale Rd Ste 31	Scottsdale	AZ	85254	(480) 443-8005
1143	14842 Frank Lloyd Wright Blvd	Scottsdale	AZ	85260	(480) 614-2665
135	8030 E Indian School Rd	Scottsdale	AZ	85251	(480) 945-1750
115	7412 E Mcdowell Rd	Scottsdale	AZ	85257	(480) 946-8941
1580	20385 N  Hayden Rd	Scottsdale	AZ	85255	(480) 419-4329
1125	4435 S White Mountain Rd	Show Low	AZ	85901	(928) 537-0696
1554	2039 El Mercado Loop	Sierra Vista	AZ	85635	(520) 417-0990
1152	750 E Fry Blvd	Sierra Vista	AZ	85635	(520) 458-2666
1570	251 E Main St	Somerton	AZ	85350	(928) 722-5695
1566	9906 W Thunderbird Blvd	Sun City	AZ	85351	(623) 974-3120
1563	16760 W Bell Rd	Surprise	AZ	85374	(623) 975-5294
1579	15333 W Waddell Rd	Surprise	AZ	85379	(623) 546-3912
1510	13738 W Bell Rd	Surprise	AZ	85374	(623) 544-1531
1151	1817 E Baseline Rd	Tempe	AZ	85283	(480) 838-0175
118	721 S Mill Ave	Tempe	AZ	85281	(480) 967-8570
131	942 E Broadway Rd	Tempe	AZ	85282	(480) 966-9080
1112	901 E Curry Rd	Tempe	AZ	85281	(480) 966-8367
1120	850 E Guadalupe Rd	Tempe	AZ	85283	(480) 730-9888
1158	3102 S Mill Ave	Tempe	AZ	85282	(480) 894-1077
1197	2145 E University Dr	Tempe	AZ	85281	(480) 894-8419
1108	8302 W Lynwood St	Tolleson	AZ	85353	(623) 936-6259
1561	9840 W Lower Buckeye Rd	Tolleson	AZ	85353	(623) 936-1801
1551	2985 W Valencia Rd	Tucson	AZ	85746	(520) 883-7484
1155	3121 N Campbell Ave	Tucson	AZ	85719	(520) 325-3941
1174	1202 W St Marys Rd	Tucson	AZ	85745	(520) 623-4957
1157	550 W Valencia Rd	Tucson	AZ	85706	(520) 889-4422
1166	1195 S Craycroft Rd	Tucson	AZ	85711	(520) 790-3156
1167	4949 N Oracle Rd	Tucson	AZ	85704	(520) 887-8770
1173	3326 E Grant Rd	Tucson	AZ	85716	(520) 326-8711
1557	6380 E Golf Links Rd	Tucson	AZ	85730	(520) 790-3003
1571	9530 E 22nd St	Tucson	AZ	85748	(520) 751-1881
1127	305 W Grant Rd	Tucson	AZ	85705	(520) 629-0401
1168	3397 S 6th Ave	Tucson	AZ	85713	(520) 622-3235
1106	7910 E Speedway Blvd	Tucson	AZ	85710	(520) 298-3002
1505	5000 E Valencia Rd	Tucson	AZ	85756	(520) 664-2246
1111	4450 1st Ave	Tucson	AZ	85719	(520) 888-8846
1119	3950 E 22nd St	Tucson	AZ	85711	(520) 571-8070
139	1302 S Kolb Ave	Tucson	AZ	85710	(520) 747-1182
1534	3030 W El Camino Del Cerro	Tucson	AZ	85745	(520) 888-1656
133	4455 E Broadway Blvd	Tucson	AZ	85711	(520) 326-8108
132	934 E Speedway Blvd	Tucson	AZ	85719	(520) 792-3054
1506	4600 W Ina Rd	Tucson	AZ	85741	(520) 572-2202
137	4610 E Speedway Blvd	Tucson	AZ	85712	(520) 325-5234
1150	7031 E Tanque Verde Rd	Tucson	AZ	85715	(520) 885-3021
1569	28882 Commerce Way	Wellton	AZ	85356	(928) 785-9218
1559	37770 N Vulture Mine Rd Ste A	Wickenburg	AZ	85390	(928) 684-2998
1134	150 Patel Dr	Williams	AZ	86046	(928) 635-0627
1546	11101 Nw Grand Ave	Youngtown	AZ	85363	(623) 523-0211
1123	10685 Fortuna Rd	Yuma	AZ	85367	(928) 305-1901
1137	2325 32nd St	Yuma	AZ	85364	(928) 726-3641
1532	6440 E 32nd St	Yuma	AZ	85364	(928) 344-6697
1164	3023 S 4th Ave	Yuma	AZ	85364	(928) 344-4320
1562	1244 S Castle Dome Ave	Yuma	AZ	85365	(928) 329-0745
1161	151 W 16th St	Yuma	AZ	85364	(928) 783-5780
1109	2678 W 16th St	Yuma	AZ	85364	(928) 782-6266
1124	140 S 4th Ave	Yuma	AZ	85364	(928) 343-2489
1585	3951 S Avenue 3 E	Yuma	AZ	85365	(928) 726-0981
location_id	address	city	state	zip	phone
6000	1302 S Orchard St	Boise	ID	83705	(208) 342-2666
6032	7040 W State St	Boise	ID	83714	(208) 853-5250
6026	10496 Overland Rd	Boise	ID	83709	(208) 658-0508
6020	6300 N Eagle Rd	Boise	ID	83713	(208) 938-5360
6018	6875 S Federal Way	Boise	ID	83716	(208) 388-8452
6040	1124 S Vista Ave	Boise	ID	83705	(208) 429-4171
6004	2611 S Broadway Ave	Boise	ID	83706	(208) 336-8088
6005	3220 N Cole Rd	Boise	ID	83704	(208) 322-5005
6024	491 N Overland Ave	Burley	ID	83318	(208) 678-3399
6001	703 N 10th Ave	Caldwell	ID	83605	(208) 454-6441
6012	196 Ironwood Dr	Coeur D Alene	ID	83814	(208) 664-8411
6021	1458 W Broadway St	Idaho Falls	ID	83402	(208) 552-2613
6016	424 S Woodruff Ave	Idaho Falls	ID	83401	(208) 528-9489
6014	1903 G St	Lewiston	ID	83501	(208) 798-7410
6033	3010 E Goldstone Dr Unit E	Meridian	ID	83642	(208) 884-3755
6010	207 E Fairview Ave	Meridian	ID	83642	(208) 884-8992
6013	710 Pullman Rd	Moscow	ID	83843	(208) 883-8212
6017	3100 Foothills Ave	Mountain Home	ID	83647	(208) 587-2007
6038	16101 Idaho Center Blvd	Nampa	ID	83687	(208) 463-7613
6002	804 12th Ave Rd	Nampa	ID	83686	(208) 467-2023
6009	1920 Caldwell Blvd	Nampa	ID	83651	(208) 463-0175
6023	1700 N Franklin Blvd	Nampa	ID	83687	(208) 463-0301
6015	1611 Pocatello Creek Rd	Pocatello	ID	83201	(208) 234-9305
6025	123 S 4th St	Pocatello	ID	83201	(208) 478-8035
6030	461 N 2nd E	Rexburg	ID	83440	(208) 656-9284
6037	717 N 5th Ave	Sandpoint	ID	83864	(208) 265-0710
6019	1501 Blue Lakes Blvd N	Twin Falls	ID	83301	(208) 733-4942
location_id	address	city	state	zip	phone
7211	1101 Nevada Hwy	Boulder City	NV	89005	(702) 294-1909
7320	3225 Retail Dr	Carson City	NV	89706	(775) 883-5757
7304	3665 S Carson St	Carson City	NV	89701	(775) 885-2600
7308	309 E William St	Carson City	NV	89701	(775) 884-3883
7317	3 Retail Rd	Dayton	NV	89403	(775) 246-8255
7307	55 S Taylor St	Fallon	NV	89406	(775) 423-8855
7315	225 US Highway 95A N	Fernley	NV	89408	(775) 575-1750
7309	1345 US Highway 395 N	Gardnerville	NV	89410	(775) 782-7859
7261	26 W Horizon Ridge Pkwy #110	Henderson	NV	89012	(702) 382-9300
7271	4161 Saint Rose Pkwy Ste B	Henderson	NV	89044	(702) 260-8596
7259	1680 W Sunset Rd	Henderson	NV	89014	(702) 433-1141
7255	1261 W Warm Springs Rd	Henderson	NV	89014	(702) 434-1472
7248	1430 W Horizon Ridge Pkwy	Henderson	NV	89012	(702) 492-7019
7247	10505 S Eastern Ave	Henderson	NV	89052	(702) 616-6777
7236	5 S Gibson Rd	Henderson	NV	89012	(702) 558-6506
7217	290 S Boulder Hwy	Henderson	NV	89015	(702) 558-7477
7212	580 N Eastern Ave	Las Vegas	NV	89101	(702) 385-7022
7258	3320 Las Vegas Blvd N	Las Vegas	NV	89115	(702) 651-0073
7257	2970 E Desert Inn Rd	Las Vegas	NV	89121	(702) 733-1421
7256	780 E Flamingo Rd	Las Vegas	NV	89119	(702) 733-7713
7214	2301 S Decatur Blvd	Las Vegas	NV	89102	(702) 878-1288
7253	6150 Las Vegas Blvd S	Las Vegas	NV	89119	(702) 614-8472
7252	9360 W Tropicana Ave	Las Vegas	NV	89147	(702) 251-1801
7251	1480 W Lake Mead Blvd	Las Vegas	NV	89106	(702) 638-4188
7249	7161 W Craig Rd	Las Vegas	NV	89129	(702) 395-0851
7215	2550 S Maryland Pkwy	Las Vegas	NV	89109	(702) 731-9846
7260	3250 N Durango Dr Ste 100	Las Vegas	NV	89129	(702) 839-9221
7209	4385 Las Vegas Blvd N	Las Vegas	NV	89115	(702) 643-6569
7204	4866 S Maryland Pkwy	Las Vegas	NV	89119	(702) 736-4846
7202	800 N Decatur Blvd	Las Vegas	NV	89107	(702) 870-1344
7201	3703 E Flamingo Rd	Las Vegas	NV	89121	(702) 451-0950
7206	4970 Spring Mountain Rd	Las Vegas	NV	89146	(702) 367-4191
7207	804 N Nellis Blvd	Las Vegas	NV	89110	(702) 459-2404
7208	3235 W Tropicana Ave	Las Vegas	NV	89103	(702) 736-7458
7268	7741 N El Capitan Way	Las Vegas	NV	89143	(702) 395-2832
7267	7980 S Rainbow Blvd	Las Vegas	NV	89139	(702) 270-2164
7266	7025 S Durango Dr	Las Vegas	NV	89113	(702) 269-6283
7262	3790 E Tropicana Ave	Las Vegas	NV	89121	(702) 434-0093
7203	6400 W Charleston Blvd	Las Vegas	NV	89146	(702) 870-1550
7246	4345 E Charleston Blvd	Las Vegas	NV	89104	(702) 440-8181
7227	3211 N Rancho Dr	Las Vegas	NV	89130	(702) 396-9946
7224	3680 Blue Diamond Rd	Las Vegas	NV	89139	(702) 260-7037
7229	3311 S Nellis Blvd	Las Vegas	NV	89121	(702) 435-8957
7223	7510 W Lake Mead Blvd	Las Vegas	NV	89128	(702) 838-3900
7221	1591 S Main St	Las Vegas	NV	89104	(702) 383-6908
7230	9490 W Lake Mead Blvd	Las Vegas	NV	89134	(702) 838-5252
7220	5605 S Rainbow Blvd	Las Vegas	NV	89118	(702) 368-1830
7233	4640 E Russell Rd	Las Vegas	NV	89120	(702) 433-9100
7235	1610 N Lamb Blvd	Las Vegas	NV	89115	(702) 437-1292
7218	3410 E Sunset Rd	Las Vegas	NV	89120	(702) 451-0811
7237	2301 S Fort Apache Rd	Las Vegas	NV	89117	(702) 562-0562
7239	8661 W Charleston Blvd	Las Vegas	NV	89117	(702) 804-5636
7241	6515 E Lake Mead Blvd	Las Vegas	NV	89156	(702) 459-7190
7219	2365 E Windmill Ln	Las Vegas	NV	89123	(702) 896-6633
7243	455 Silverado Ranch Blvd	Las Vegas	NV	89123	(702) 407-5262
7244	6451 Boulder Hwy	Las Vegas	NV	89122	(702) 435-6116
7245	4040 S Rainbow Blvd	Las Vegas	NV	89103	(702) 227-1219
7225	4145 S Durango Dr	Las Vegas	NV	89147	(702) 367-2236
7226	320 Sandhill Rd	Mesquite	NV	89027	(702) 346-1608
7264	6345 Losee Rd	North Las Vegas	NV	89081	(702) 639-4387
7242	5536 Camino Al Norte	North Las Vegas	NV	89031	(702) 649-5222
7265	4595 W Ann Rd	North Las Vegas	NV	89031	(702) 631-4784
7231	1845 W Craig Rd	North Las Vegas	NV	89032	(702) 657-6154
7205	2104 Las Vegas Blvd N	North Las Vegas	NV	89030	(702) 649-9201
7228	3821 E Craig Rd	North Las Vegas	NV	89030	(702) 643-2347
7314	179 Damonte Ranch Pkwy	Reno	NV	89521	(775) 851-6400
7316	185 Lemmon Dr	Reno	NV	89506	(775) 971-9000
7301	5095 S Mccarran Blvd	Reno	NV	89502	(775) 825-1202
7310	10450 N Mccarran Blvd	Reno	NV	89503	(775) 746-4344
7305	410 Keystone Ave	Reno	NV	89503	(775) 786-1113
7302	881 Apple St	Reno	NV	89502	(775) 827-6363
7306	655 E Prater Way	Sparks	NV	89431	(775) 356-7111
7303	2289 Oddie Blvd	Sparks	NV	89431	(775) 331-4242
7318	122 Los Altos Pkwy	Sparks	NV	89436	(775) 626-5584
7311	350 Interstate 80	Verdi	NV	89439	(775) 345-5225
7319	218 W Winnemucca Blvd	Winnemucca	NV	89445	(775) 625-1434
location_id	address	city	state	zip	phone
8421	400 E Heron St	Aberdeen	WA	98520	(360) 532-7243
8373	2820 Commercial Ave	Anacortes	WA	98221	(360) 299-8602
8466	3818 172nd St Ne	Arlington	WA	98223	(360) 653-3734
8366	524 A St Se	Auburn	WA	98002	(253) 939-3270
8427	340 15th St Ne	Auburn	WA	98002	(253) 939-6860
8320	19 Nw 12th Ave	Battle Ground	WA	98604	(360) 666-2281
8367	3179 156th Ave Se	Bellevue	WA	98007	(425) 746-0527
8422	1900 148th Ave Ne	Bellevue	WA	98007	(425) 643-3388
8418	12 Bellevue Way Se	Bellevue	WA	98004	(425) 454-9387
8372	1020 W Bakerview Rd	Bellingham	WA	98226	(360) 647-6072
8457	1075 E Sunset Dr	Bellingham	WA	98226	(360) 671-7727
8380	8140 Birch Bay Square St	Blaine	WA	98230	(360) 366-3869
8460	19510 State Route 410 E	Bonney Lake	WA	98390	(253) 862-0999
8302	22736 Bothell Everett Hwy	Bothell	WA	98021	(425) 485-7364
8449	4219 Wheaton Way	Bremerton	WA	98310	(360) 479-3443
8363	4305 Kitsap Way	Bremerton	WA	98312	(360) 782-0387
8407	1127 Sw 128th St	Burien	WA	98146	(206) 244-1950
8405	14206 1st Ave S	Burien	WA	98168	(206) 242-3364
8455	610 S Burlington Blvd	Burlington	WA	98233	(360) 757-7580
8379	9408 Old Highway 99	Burlington	WA	98233	(360) 757-0938
8493	1130 Harrison Ave	Centralia	WA	98531	(360) 807-0277
8465	113 Interstate Ave	Chehalis	WA	98532	(360) 748-6505
8472	22633 Marine View Dr S	Des Moines	WA	98198	(206) 870-0995
8478	1810 S 272nd St	Des Moines	WA	98198	(253) 941-5958
8370	1275 Center Dr	Dupont	WA	98327	(253) 964-0759
8389	501 Grant Rd	East Wenatchee	WA	98802	(509) 884-1934
8434	21130 Highway 99	Edmonds	WA	98026	(425) 771-5212
8484	115 W University Way	Ellensburg	WA	98926	(509) 933-2833
8454	311 Griffin Ave E	Enumclaw	WA	98022	(360) 802-1087
8314	1515 132nd St Se	Everett	WA	98208	(425) 337-6666
8470	4717 Evergreen Way	Everett	WA	98203	(425) 339-0866
8307	11820 Evergreen Way	Everett	WA	98204	(425) 356-9920
8423	2106 Everett Ave	Everett	WA	98201	(425) 259-5283
8438	1505 Se Everett Mall Way	Everett	WA	98208	(425) 347-7171
8310	8520 Evergreen Way	Everett	WA	98208	(425) 267-9651
8305	1610 S 347th Pl	Federal Way	WA	98003	(253) 815-0059
8360	2400 Sw 336th St	Federal Way	WA	98023	(253) 874-5257
8420	31130 Pacific Hwy S	Federal Way	WA	98003	(253) 839-3592
8447	3402 Pacific Hwy E	Fife	WA	98424	(253) 922-9439
8303	740 Nw Gilman Blvd	Issaquah	WA	98027	(425) 837-1618
8426	6100 Ne Bothell Way	Kenmore	WA	98028	(425) 486-6856
8351	4800 W Clearwater Ave	Kennewick	WA	99336	(509) 374-0437
8301	2722 W 10th Ave	Kennewick	WA	99336	(509) 585-0406
8404	221 Central Ave N	Kent	WA	98032	(253) 854-2689
8496	8829 S 180th St	Kent	WA	98032	(425) 251-0286
8429	23911 104th Ave Se	Kent	WA	98031	(253) 854-3044
8474	20746 108th Ave Se	Kent	WA	98031	(253) 852-1529
8499	16757 Se 272nd St	Kent	WA	98042	(253) 631-5393
8448	12409 Ne 116th St	Kirkland	WA	98034	(425) 822-8442
8343	8215 Martin Way E	Lacey	WA	98516	(360) 438-8544
8430	4040 Martin Way	Lacey	WA	98506	(360) 491-4632
8388	507 91st Ave Ne	Lake Stevens	WA	98258	(425) 334-6130
8468	8504 Hipkins Rd Sw	Lakewood	WA	98498	(253) 984-0661
8415	9815 Gravelly Lake Dr Sw	Lakewood	WA	98499	(253) 584-4155
8450	8814 S Tacoma Way	Lakewood	WA	98499	(253) 581-7244
8431	1445 15th Ave	Longview	WA	98632	(360) 636-3500
8359	8083 Guide Meridian Rd	Lynden	WA	98264	(360) 354-6679
8464	1212 164th St Sw	Lynnwood	WA	98087	(425) 742-0652
8483	4323 196th St Sw	Lynnwood	WA	98036	(425) 673-7895
8381	17210 Highway 99	Lynnwood	WA	98037	(425) 745-6505
8308	9603 State Ave	Marysville	WA	98270	(360) 653-7447
8437	1125 4th St	Marysville	WA	98270	(360) 653-8344
8390	13714 Roosevelt Rd	Monroe	WA	98272	(360) 863-8377
8475	19905 State Route 2	Monroe	WA	98272	(360) 794-1896
8335	506 E Wheeler Rd	Moses Lake	WA	98837	(509) 764-1581
8417	304 E College Way	Mount Vernon	WA	98273	(360) 428-6960
8344	11800 Mukilteo Speedway	Mukilteo	WA	98275	(425) 493-8470
8452	32205 State Route 20	Oak Harbor	WA	98277	(360) 675-1768
8424	520 Plum St Se	Olympia	WA	98501	(360) 754-7296
8473	402 Seattle Blvd N	Pacific	WA	98047	(253) 351-9346
8383	7214 Burden Blvd	Pasco	WA	99301	(509) 546-2174
8345	3109 W Court St	Pasco	WA	99301	(509) 544-0576
8358	902 E Front St	Port Angeles	WA	98362	(360) 417-5187
8451	1467 Olney St Se	Port Orchard	WA	98366	(360) 876-4236
8391	21599 Market Pl Nw	Poulsbo	WA	98370	(360) 394-5225
8361	310 Ne Stadium Way	Pullman	WA	99163	(509) 332-5317
8462	705 S Meridian	Puyallup	WA	98371	(253) 435-6071
8488	11024 Canyon Rd E	Puyallup	WA	98373	(253) 537-3467
8463	3750 S Meridian	Puyallup	WA	98373	(253) 840-2411
8485	16022 Meridian E	Puyallup	WA	98375	(253) 435-0648
8346	16280 Ne 87th St	Redmond	WA	98052	(425) 861-0681
8409	479 Rainier Ave S	Renton	WA	98055	(425) 226-1923
8413	2813 Sunset Blvd Ne	Renton	WA	98056	(425) 228-5207
8306	4810 Ne 4th St	Renton	WA	98059	(425) 793-5874
8311	1491 Tapteal Dr	Richland	WA	99352	(509) 374-0810
8327	49 Columbia Point Dr	Richland	WA	99352	(509) 943-8544
8333	620 228th Ave Ne	Sammamish	WA	98074	(425) 868-4131
8428	2840 S 188th St	Seatac	WA	98188	(206) 244-6293
8497	13055 Lake City Way Ne	Seattle	WA	98125	(206) 364-3485
8490	5903 1st Ave S	Seattle	WA	98108	(206) 764-9564
8406	9102 Rainier Ave S	Seattle	WA	98118	(206) 725-7143
8412	4749 University Way Ne	Seattle	WA	98105	(206) 525-5599
8467	1907 4th Ave S	Seattle	WA	98134	(206) 628-9028
8324	999 Nw Leary Way	Seattle	WA	98107	(206) 706-0524
8476	4203 Sw Admiral Way	Seattle	WA	98116	(206) 932-7315
8425	8502 Aurora Ave N	Seattle	WA	98103	(206) 524-2296
8350	12515 Aurora Ave N	Seattle	WA	98133	(206) 365-2204
8368	1280 W Washington St	Sequim	WA	98382	(360) 681-4069
8329	2947 Olympic Hwy N	Shelton	WA	98584	(360) 427-1468
8410	18213 Aurora Ave N	Shoreline	WA	98133	(206) 546-1978
8441	10735 Silverdale Way Nw	Silverdale	WA	98383	(360) 698-0150
8321	827 Avenue D	Snohomish	WA	98290	(360) 568-6644
8386	20505 Mountain Hwy E	Spanaway	WA	98387	(253) 847-2891
8480	4220 E Sprague Ave	Spokane	WA	99202	(509) 533-1191
8461	505 W 3rd Ave	Spokane	WA	99201	(509) 456-0540
8385	10306 W Highway 2	Spokane	WA	99224	(509) 455-5155
8432	5 W Hawthorne Rd	Spokane	WA	99218	(509) 465-5865
8435	1505 N Pines Rd	Spokane	WA	99206	(509) 891-4145
8439	6318 N Division St	Spokane	WA	99208	(509) 484-5962
8338	2732 N Division St	Spokane	WA	99207	(509) 328-1041
8326	4001 N Market St	Spokane	WA	99207	(509) 487-2586
8442	2205 N Argonne Rd	Spokane Valley	WA	99212	(509) 922-7320
8369	26906 92nd Ave Nw	Stanwood	WA	98282	(360) 629-2384
8376	827 Valley Ave	Sumner	WA	98390	(253) 863-1698
8362	100 W South Hill Rd	Sunnyside	WA	98944	(509) 837-3644
8445	10656 Pacific Ave S	Tacoma	WA	98444	(253) 536-1995
8340	4702 S Center St	Tacoma	WA	98409	(253) 460-3441
8477	15114 Pacific Ave S	Tacoma	WA	98444	(253) 536-3280
8469	2420 Pacific Ave	Tacoma	WA	98402	(253) 627-2907
8371	5207 Tacoma Mall Blvd	Tacoma	WA	98409	(253) 472-0533
8304	2054 6th Ave	Tacoma	WA	98403	(253) 597-8974
8440	7605 S Hosmer St	Tacoma	WA	98408	(253) 475-9465
8416	6702 6th Ave	Tacoma	WA	98406	(253) 565-2934
8411	5517 Pacific Ave	Tacoma	WA	98408	(253) 473-3407
8365	3742 S 144th St	Tukwila	WA	98168	(206) 242-8877
8443	16400 W Valley Hwy	Tukwila	WA	98188	(425) 235-5060
8481	13050 Interurban Ave S	Tukwila	WA	98168	(206) 242-3525
8319	1635 Mottman Rd Sw	Tumwater	WA	98512	(360) 357-1068
8471	110 Trosper Rd Sw	Tumwater	WA	98501	(360) 705-1506
8482	3922 Bridgeport Way W	University Place	WA	98466	(253) 565-3513
8318	7650 Ne Fourth Plain Rd	Vancouver	WA	98662	(360) 891-8806
8313	16333 Se 12th St Bldg A	Vancouver	WA	98683	(360) 260-2666
8375	7815 Ne 6th Ave	Vancouver	WA	98665	(360) 546-2050
8330	13009 Ne Highway 99 Ste 300	Vancouver	WA	98686	(360) 576-7023
8487	221 Ne 104th Ave	Vancouver	WA	98664	(360) 885-3898
8331	7205 Ne 117th Ave	Vancouver	WA	98662	(360) 885-2450
8491	711 N Sullivan Rd	Veradale	WA	99037	(509) 892-0475
8322	212 S 9th Ave	Walla Walla	WA	99362	(509) 529-1832
8328	3307 Evergreen Way #201	Washougal	WA	98671	(360) 335-8406
8378	408 N Chelan Ave	Wenatchee	WA	98801	(509) 667-1627
8489	17445 131st Ave Ne	Woodinville	WA	98072	(425) 486-4580
8494	3907 Tieton Dr	Yakima	WA	98902	(509) 972-4368
8315	1002 N 1st St	Yakima	WA	98901	(509) 452-5260
8300	2317 S First St	Yakima	WA	98903	(509) 248-3796
8336	1001 E Yelm Ave	Yelm	WA	98597	(360) 400-5225
location_id	address	city	state	zip	phone
7158	1825 Pacific Blvd Se	Albany	OR	97321	(541) 967-6107
7114	9450 Sw Beaverton Hillsdale Hw	Beaverton	OR	97005	(503) 297-7044
7118	2920 Sw Cedar Hills Blvd	Beaverton	OR	97005	(503) 627-0205
7131	2145 Nw Town Center Dr	Beaverton	OR	97006	(503) 439-6431
7172	805 Ne Third St	Bend	OR	97701	(541) 330-1300
7147	550 Ne Circle Blvd	Corvallis	OR	97330	(541) 757-3399
7174	1525 Gateway Blvd	Cottage Grove	OR	97424	(541) 942-7010
7159	4384 Commerce St	Eugene	OR	97402	(541) 343-4114
7153	1788 W 6th Ave	Eugene	OR	97402	(541) 343-1435
7170	3206 Pacific Ave	Forest Grove	OR	97116	(503) 359-5346
7167	120 Hillcrest Dr	Grants Pass	OR	97526	(541) 474-7167
7116	25678 Se Stark St	Gresham	OR	97030	(503) 674-8107
7168	2196 Ne Burnside Rd	Gresham	OR	97030	(503) 492-4791
7140	1305 N 1st St	Hermiston	OR	97838	(541) 567-3671
7150	21965 Nw Imbrie Dr	Hillsboro	OR	97124	(503) 693-8769
7120	1525 Se 21st Ave	Hillsboro	OR	97123	(503) 615-0957
7129	7563 Se Tualatin Valley Hwy	Hillsboro	OR	97123	(503) 356-1796
7171	3040 Washburn Wy	Klamath Falls	OR	97603	(541) 885-7171
7178	2020 S Santiam Hwy	Lebanon	OR	97355	(541) 258-7178
7119	2565 Ne Highway 99w	Mcminnville	OR	97128	(503) 474-9717
7103	309 E Barnett Rd	Medford	OR	97501	(541) 779-0506
7102	2002 N Pacific Hwy	Medford	OR	97501	(541) 779-3208
7166	4150 S Pacific Hwy	Medford	OR	97501	(541) 535-7822
7123	14811 Se Mcloughlin Blvd	Milwaukie	OR	97267	(503) 353-9435
7107	1407 Sw 4th Ave	Ontario	OR	97914	(541) 889-8646
7132	19009 S Beavercreek Rd	Oregon City	OR	97045	(503) 657-9868
7149	1904 Sw Court Pl	Pendleton	OR	97801	(541) 278-7877
7112	19110 Se Stark St	Portland	OR	97233	(503) 667-5393
7160	2260 Nw Wilson St	Portland	OR	97210	(503) 224-2267
7157	12444 Ne Airport Way	Portland	OR	97230	(503) 253-1437
7126	2714 Ne 57th Ave	Portland	OR	97213	(503) 282-8449
7105	921 S E Powell Blvd	Portland	OR	97202	(503) 230-8930
7121	4242 Se 82nd Ave	Portland	OR	97266	(503) 772-1341
7124	7921 Martin Luther King Blvd	Portland	OR	97211	(503) 285-7430
7122	500 Se 105th Ave	Portland	OR	97216	(503) 408-1519
7143	10500 Se 82nd Ave	Portland	OR	97086	(503) 775-6062
7175	1830 N Highway 97	Redmond	OR	97756	(541) 504-4475
7135	1400 Ne Stephens St	Roseburg	OR	97470	(541) 464-8025
7136	4195 Portland Rd Ne	Salem	OR	97301	(503) 363-3749
7115	1940 Lancaster Dr Ne	Salem	OR	97305	(503) 362-8850
7117	2801 Broadway St Ne	Salem	OR	97303	(503) 585-4830
7152	4770 Commercial St Se	Salem	OR	97302	(503) 566-7240
7144	2480 Mission St Se	Salem	OR	97302	(503) 763-0393
7169	37151 Highway 26	Sandy	OR	97055	(503) 668-0724
7145	3491 Hutton St	Springfield	OR	97477	(541) 736-8168
7133	4175 Main St	Springfield	OR	97478	(541) 736-3861
7139	1805 Pioneer Pkwy E	Springfield	OR	97477	(541) 736-4934
7177	1407 W 6th St	The Dalles	OR	97058	(541) 296-4526
7127	13090 Sw Pacific Hwy	Tigard	OR	97223	(503) 624-9594
7155	7700 Sw Nyberg St	Tualatin	OR	97062	(503) 885-1389
7111	1865 Blankenship Rd	West Linn	OR	97068	(503) 657-1961
7182	2401 Ave A	White City	OR	97503	(541) 826-2010
7154	2602 Ne 238th Dr	Wood Village	OR	97060	(503) 666-1282
7128	110 Arney Rd	Woodburn	OR	97071	(503) 981-3338
location_id	address	city	state	zip	phone
3304	3830 W Sierra Hwy	Acton	CA	93510	(661) 269-2635
181	5033 N Kanan Rd	Agoura	CA	91301	(818) 889-1653
437	1826 Webster St	Alameda	CA	94501	(510) 523-6396
432	1257 Park St	Alameda	CA	94501	(510) 522-8865
3346	2531 W Valley Blvd	Alhambra	CA	91803	(626) 299-1976
3533	27882 Aliso Creek Rd	Aliso Viejo	CA	92656	(949) 360-0834
3319	2125 N Windsor Ave	Altadena	CA	91001	(626) 791-0932
364	2305 N Lake Ave	Altadena	CA	91001	(626) 791-5402
4334	107 W American Canyon Rd	American Canyon	CA	94503	(707) 644-1543
3274	1155 N Euclid Ave	Anaheim	CA	92801	(714) 772-3740
3258	290 W Lincoln Ave	Anaheim	CA	92805	(714) 533-0136
264	10642 W Katella Ave	Anaheim	CA	92804	(714) 778-3054
3510	1101 N Magnolia Ave	Anaheim	CA	92801	(714) 484-4773
231	100 S State College Blvd	Anaheim	CA	92806	(714) 758-9325
223	2793 W Ball Rd	Anaheim	CA	92804	(714) 220-9175
3243	999 S Brookhurst St	Anaheim	CA	92804	(714) 778-1232
3165	2210 S Harbor Blvd	Anaheim	CA	92802	(714) 740-1131
5433	2000 Gene Autry Way	Anaheim	CA	92806	(000) 000-0000
4368	2010 Arby Way	Anderson	CA	96007	(530) 365-1765
3404	7949 Watt Ave	Antelope	CA	95843	(916) 334-1641
500	2505 A St	Antioch	CA	94509	(925) 757-4384
4340	2705 Hillcrest Ave	Antioch	CA	94531	(925) 754-2650
3491	4801 Lone Tree Way	Antioch	CA	94531	(925) 753-0406
3232	21630 Bear Valley Rd	Apple Valley	CA	92308	(760) 240-1746
3326	20168 Us Highway 18	Apple Valley	CA	92307	(760) 946-2203
5400	15818 Apple Valley Rd	Apple Valley	CA	92307	(760) 946-1416
5413	18901 Bear Valley Rd	Apple Valley	CA	92308	(760) 247-6661
3516	164 E Live Oak Ave	Arcadia	CA	91006	(626) 254-9082
399	1208 Grand Ave	Arroyo Grande	CA	93420	(805) 489-3668
3190	18299 Pioneer Blvd	Artesia	CA	90701	(562) 860-6657
5418	9000 W Front St	Atascadero	CA	93422	(805) 462-9200
589	1898 Bellevue Rd	Atwater	CA	95301	(209) 358-5992
471	13421 E Lincoln Way	Auburn	CA	95603	(530) 888-0750
535	2680 Grass Valley Hwy	Auburn	CA	95603	(530) 823-6220
3217	877  E Alosta Ave	Azusa	CA	91702	(626) 969-1153
3579	126 N Azusa Ave	Azusa	CA	91702	(626) 334-7504
3394	72358 Baker Blvd	Baker	CA	92309	(760) 733-4814
4396	3300 Buena Vista Rd Bldg H	Bakersfield	CA	93311	(661) 664-5716
176	3350 Stine Ave	Bakersfield	CA	93309	(661) 397-6872
3543	4750 Gosford Rd	Bakersfield	CA	93313	(661) 834-0190
3368	8320 Rosedale Hwy	Bakersfield	CA	93312	(661) 587-7616
3327	2221 Panama Ln	Bakersfield	CA	93307	(661) 397-2076
3508	17081 Zachary Rd	Bakersfield	CA	93308	(661) 392-1224
3261	2611 N Oswell St	Bakersfield	CA	93306	(661) 872-6520
3316	205 Trask St	Bakersfield	CA	93314	(661) 764-6104
174	5656 California Ave	Bakersfield	CA	93309	(661) 325-9067
3271	4200 Chester Ave	Bakersfield	CA	93301	(661) 325-6323
4398	147 S Oswell St	Bakersfield	CA	93307	(661) 363-7921
4385	6815 Stine Rd	Bakersfield	CA	93313	(661) 832-7506
4392	11102 Brimhall Rd	Bakersfield	CA	93312	(661) 589-5810
3576	10 Union Ave	Bakersfield	CA	93307	(661) 861-0602
4384	11104 Olive Dr	Bakersfield	CA	93312	(661) 589-3264
4355	2641 Mt Vernon Ave	Bakersfield	CA	93306	(661) 872-9850
3535	19487 Highway 65	Bakersfield	CA	93308	(661) 399-9277
3236	416 Weedpatch Ln	Bakersfield	CA	93307	(661) 363-0801
3549	2111 Taft Hwy	Bakersfield	CA	93313	(661) 837-0212
3235	2220 Chester Ave	Bakersfield	CA	93301	(661) 324-9330
3199	1200 Oak St	Bakersfield	CA	93304	(661) 861-8337
3162	5320 Olive Dr	Bakersfield	CA	93308	(661) 393-3391
300	3002 Ming Ave	Bakersfield	CA	93304	(661) 832-5942
5303	14611 Dalewood St	Baldwin Park	CA	91706	(626) 851-9875
3309	3188 Baldwin Park Blvd	Baldwin Park	CA	91706	(626) 337-6098
5359	770 W Ramsey St	Banning	CA	92220	(951) 849-0702
3233	6350 W Ramsey St	Banning	CA	92220	(951) 845-2399
368	1370 E Main St	Barstow	CA	92311	(760) 256-3167
3397	2620 Fisher Blvd	Barstow	CA	92311	(760) 253-5335
5405	89 S Beaumont Ave	Beaumont	CA	92223	(951) 769-2888
242	4525 Florence Ave	Bell	CA	90201	(323) 771-9439
5313	6350 Florence Ave	Bell Gardens	CA	90201	(562) 806-7031
5301	17600 Bellflower Blvd	Bellflower	CA	90706	(562) 920-6733
3192	10205 E Rosecrans Ave	Bellflower	CA	90706	(562) 866-1636
3482	6001 Goodyear Rd	Benicia	CA	94510	(707) 751-0371
431	2197 San Pablo Ave	Berkeley	CA	94702	(510) 841-3574
3561	42250 Washington St	Bermuda Dunes	CA	92201	(760) 772-2658
362	40771 Village Dr	Big Bear Lake	CA	92315	(909) 866-6436
170	575 S Main St	Bishop	CA	93514	(760) 872-1190
67	190 S Lovekin Blvd	Blythe	CA	92225	(760) 921-8453
68	4011 Bonita Rd	Bonita	CA	91902	(619) 475-8201
3009	5256 S Mission Rd	Bonsall	CA	92003	(760) 945-0472
62	315 W Main St	Brawley	CA	92227	(760) 344-2940
3063	1684 E Main St	Brawley	CA	92227	(760) 351-0330
3251	315 S Brea Blvd	Brea	CA	92821	(714) 529-2361
4349	60 Technology Way	Brentwood	CA	94513	(925) 516-9338
4399	3191 Balfour Rd	Brentwood	CA	94513	(925) 240-7480
5411	250 E Highway 246	Buellton	CA	93427	(805) 688-6886
166	5460 Beach Blvd	Buena Park	CA	90621	(714) 522-5308
158	6865 La Palma Ave	Buena Park	CA	90620	(714) 994-0772
3207	5990 Orangethorpe Ave	Buena Park	CA	90620	(714) 670-8412
305	2511 N San Fernando Blvd	Burbank	CA	91504	(818) 841-9689
3191	26510 Agoura Rd	Calabasas	CA	91302	(818) 880-9253
3057	832 W Birch St	Calexico	CA	92231	(760) 357-6508
3052	1071 Birch St	Calexico	CA	92231	(760) 768-8498
92	121 Rockwood Ave	Calexico	CA	92231	(760) 357-3778
59	703 S Imperial Ave	Calexico	CA	92231	(760) 357-4211
3022	203 E Cole Rd	Calexico	CA	92231	(760) 357-0087
3055	1791 Maggio Rd	Calexico	CA	92231	(760) 357-9815
3550	1199 7th St	Calimesa	CA	92320	(909) 795-8112
3247	4901 Verdugo Way	Camarillo	CA	93012	(805) 987-5159
3259	1650 Daily Dr	Camarillo	CA	93010	(805) 484-9443
3197	4511 Las Posas Rd	Camarillo	CA	93010	(805) 484-8233
411	1737 S Bascom Ave	Campbell	CA	95008	(408) 377-7074
426	1301 Camden Ave	Campbell	CA	95008	(408) 371-9313
412	1450 W Campbell Ave	Campbell	CA	95008	(408) 378-0621
496	510 W Hamilton Ave	Campbell	CA	95008	(408) 866-0131
310	20840 Roscoe Blvd	Canoga Park	CA	91306	(818) 998-4295
348	7264 Topanga Canyon Blvd	Canoga Park	CA	91303	(818) 347-8353
3308	6800 De Soto Ave	Canoga Park	CA	91303	(818) 313-9459
187	18955 W Soledad Cyn Rd	Canyon Country	CA	91351	(661) 252-4321
42	1967 San Elijo Ave	Cardiff By The Sea	CA	92007	(760) 942-9160
36	901 Carlsbad Village Dr	Carlsbad	CA	92008	(760) 434-7141
3006	7050 Avenida Encinas	Carlsbad	CA	92009	(760) 438-1461
494	5845 Marconi Ave	Carmichael	CA	95608	(916) 487-6876
180	20423 Avalon Blvd	Carson	CA	90746	(310) 515-1861
273	23813 Avalon Blvd	Carson	CA	90745	(310) 830-2621
3255	111 E 223rd St	Carson	CA	90745	(310) 518-3025
5310	319 E Albertoni St	Carson	CA	90746	(310) 217-0882
5369	22220 Wilmington Ave	Carson	CA	90745	(310) 522-0725
3525	939 E Carson St	Carson	CA	90745	(310) 522-5696
5389	28090 N Hasley Canyon Rd	Castaic	CA	91384	(661) 775-9360
3208	31769 The Old Rd	Castaic	CA	91384	(661) 257-1889
419	3035 Castro Valley Rd	Castro Valley	CA	94546	(510) 537-1540
184	68509 E Us Highway 111	Cathedral City	CA	92234	(760) 324-4285
3279	34-311 Date Palm Dr	Cathedral City	CA	92234	(760) 770-4504
5397	68020 Vista Chino	Cathedral City	CA	92234	(760) 327-0580
4350	1955 20th St	Chico	CA	95928	(530) 894-2559
549	2542 Esplanade	Chico	CA	95973	(530) 894-6910
446	500 Broadway St	Chico	CA	95928	(530) 893-5198
347	12511 Central Ave	Chino	CA	91710	(909) 591-7880
3246	13850 Peyton Dr	Chino Hills	CA	91709	(909) 465-1803
178	14864 Pipeline Ave	Chino Hills	CA	91709	(909) 597-8995
3537	6570 Butterfield Ranch Rd	Chino Hills	CA	91709	(909) 606-8003
3399	18158 Avenue 24	Chowchilla	CA	93610	(559) 665-2091
15	802 3rd Ave	Chula Vista	CA	91911	(619) 425-1791
6	486 Broadway	Chula Vista	CA	91910	(619) 427-8530
93	585 Palomar St	Chula Vista	CA	91911	(619) 422-6561
86	5 N 4th Ave	Chula Vista	CA	91910	(619) 426-0533
3070	947 Otay Lake Rd	Chula Vista	CA	91913	(619) 216-3070
63	1408 3rd Ave	Chula Vista	CA	91911	(619) 420-3902
99	370 E H St	Chula Vista	CA	91910	(619) 425-4416
489	6131 Greenback Ln	Citrus Heights	CA	95621	(916) 722-2600
4323	7807 Sunrise Blvd	Citrus Heights	CA	95610	(916) 726-1028
3201	18271 Gale Ave	City Of Industry	CA	91748	(626) 810-7963
5361	13361 Crossroads Pkwy N	City Of Industry	CA	91746	(562) 695-5651
4314	15945 Dam Rd	Clearlake	CA	95422	(707) 994-4387
3567	1680 Herndon Ave	Clovis	CA	93611	(559) 297-8873
3222	1132 Clovis Ave	Clovis	CA	93612	(559) 297-1992
3523	46651 Dillon Rd	Coachella	CA	92236	(760) 347-3006
5344	52144 Harrison St	Coachella	CA	92236	(760) 398-9727
3293	1191 S Mt Vernon Ave	Colton	CA	92324	(909) 783-7748
5318	2780 S Iowa Ave	Colton	CA	92324	(951) 369-7086
5370	756 W Valley Blvd	Colton	CA	92324	(909) 783-0640
3585	1199 N Mt Vernon Ave	Colton	CA	92324	(909) 783-8107
3160	5555 E Washington Blvd	Commerce	CA	90040	(323) 722-2066
3254	7503 E Slauson Ave	Commerce	CA	90040	(323) 890-2945
240	701 E Rosecrans Ave	Compton	CA	90221	(310) 608-1083
253	115 N Central Ave	Compton	CA	90220	(310) 603-8728
4400	1051 Willow Pass Ct	Concord	CA	94520	(925) 798-5066
443	4740 Clayton Rd	Concord	CA	94521	(925) 682-1275
410	1710 Monument Blvd	Concord	CA	94520	(925) 671-7911
3489	3098 Highway 99 W	Corning	CA	96021	(530) 824-4390
360	1501 W 6th St	Corona	CA	92882	(951) 734-0354
3557	2711 Green River Rd	Corona	CA	92882	(951) 272-2037
5311	3855 Bedford Canyon Rd	Corona	CA	92883	(951) 279-4133
5340	784 N Main St	Corona	CA	92880	(951) 739-7780
3200	4715 Green River Rd	Corona	CA	92880	(951) 272-0841
3276	2296 Griffin Way	Corona	CA	92879	(951) 272-3761
3292	1180 E Ontario Ave	Corona	CA	92881	(951) 898-7907
5349	1315 Magnolia Ave Ste 102	Corona	CA	92879	(951) 278-9764
3240	2930 Harbor Blvd	Costa Mesa	CA	92626	(714) 662-3469
284	385 E 17th St	Costa Mesa	CA	92627	(949) 548-7047
243	2235 Harbor Blvd	Costa Mesa	CA	92627	(949) 548-7027
246	1205 Baker St	Costa Mesa	CA	92626	(714) 557-7007
3509	2602 Newport Blvd	Costa Mesa	CA	92627	(949) 631-0282
320	1052 N Grand Ave	Covina	CA	91724	(626) 332-1995
3325	912 N Azusa Ave	Covina	CA	91722	(626) 331-8301
5424	535 S Citrus Ave	Covina	CA	91723	(626) 967-7622
4327	1233 6th St	Crescent City	CA	95531	(707) 465-3763
234	5400 Sepulveda Blvd	Culver City	CA	90230	(310) 397-4931
490	1451 S De Anza Blvd	Cupertino	CA	95014	(408) 255-3126
5428	4901 Lincoln Ave	Cypress	CA	90630	(714) 952-1632
422	7217 Mission St	Daly City	CA	94014	(650) 755-4555
161	34297 Pacific Coast Hwy	Dana Point	CA	92629	(949) 443-4054
467	337 G St	Davis	CA	95616	(530) 297-0400
81	2690 Del Mar Heights Rd	Del Mar	CA	92014	(858) 755-2828
3478	435 Canyon Del Rey Blvd	Del Rey Oaks	CA	93940	(831) 899-8615
3328	14398 County Line Rd	Delano	CA	93215	(661) 721-1132
5328	22600 Palm Dr	Desert Hot Springs	CA	92240	(760) 329-4991
3216	1165 S Diamond Bar Blvd	Diamond Bar	CA	91765	(909) 861-3562
3245	20965 Golden Springs Dr	Diamond Bar	CA	91765	(909) 595-1414
3446	2100 E El Monte Way	Dinuba	CA	93618	(559) 591-3505
3454	150 Dorset Dr	Dixon	CA	95620	(707) 678-3045
218	7905 E Imperial Hwy	Downey	CA	90242	(562) 862-1958
3154	10037 Lakewood Blvd	Downey	CA	90240	(562) 923-1934
3511	8136 Telegraph Blvd	Downey	CA	90240	(562) 776-6038
3229	9265 Firestone Blvd	Downey	CA	90241	(562) 923-6690
3186	9501 Imperial Hwy	Downey	CA	90242	(562) 803-7900
462	7265 Village Pkwy	Dublin	CA	94568	(925) 828-2040
3465	3970 County Rd 89	Dunnigan	CA	95937	(530) 724-4022
326	4470 Eagle Rock Blvd	Eagle Rock	CA	90041	(323) 259-3154
3348	1710 Glendale Blvd	Echo Park	CA	90026	(323) 661-7225
3033	14039 Highway 8 Business	El Cajon	CA	92021	(619) 938-1940
3064	1700 E Main St	El Cajon	CA	92021	(619) 441-2564
3050	350 E Chase Ave	El Cajon	CA	92020	(619) 401-9631
3003	2461 Jamacha Rd	El Cajon	CA	92019	(619) 444-1086
54	2733 Navajo Rd	El Cajon	CA	92020	(619) 697-3957
32	495 N 2nd St	El Cajon	CA	92021	(619) 440-8286
78	140 Broadway	El Cajon	CA	92021	(619) 442-4747
7	393 W Main St	El Cajon	CA	92020	(619) 447-2520
3059	699 E Danenberg Rd	El Centro	CA	92243	(760) 370-9486
52	2100 S 4th St	El Centro	CA	92243	(760) 353-2790
47	666 N Imperial Ave	El Centro	CA	92243	(760) 353-4462
3054	2499 Cottonwood Dr	El Centro	CA	92243	(760) 337-8959
572	5920 Cutting Blvd	El Cerrito	CA	94530	(510) 236-9195
428	10409 San Pablo Ave	El Cerrito	CA	94530	(510) 525-6271
3439	1023 Saratoga Way	El Dorado Hills	CA	95762	(916) 933-5764
3211	1933 Durfee Ave	El Monte	CA	91733	(626) 444-8029
3256	10699 Valley Blvd	El Monte	CA	91731	(626) 444-3629
5346	11780 Ramona Blvd	El Monte	CA	91732	(626) 279-7549
5335	9220 Flair Dr	El Monte	CA	91731	(626) 571-5462
418	4080 San Pablo Dam Rd	El Sobrante	CA	94803	(510) 223-3354
387	23812 El Toro Rd	El Toro	CA	92630	(949) 581-2883
3438	4820 Laguna Blvd	Elk Grove	CA	95758	(916) 683-6545
3436	9179 Elk Grove Florin Rd	Elk Grove	CA	95624	(916) 685-2520
97	1439 Encinitas Blvd	Encinitas	CA	92024	(760) 943-1134
3051	238 W Felicita Ave	Escondido	CA	92025	(760) 746-7504
75	550 W Mission Ave	Escondido	CA	92025	(760) 745-7785
3040	1050 W El Norte Pkwy	Escondido	CA	92026	(760) 233-2070
38	1430 E Valley Pkwy	Escondido	CA	92027	(760) 741-4981
5373	12340 Highland Ave Ste B	Etiwanda	CA	91739	(909) 646-9512
4317	1620 Broadway	Eureka	CA	95501	(707) 445-3440
521	8100 Greenback Ln	Fair Oaks	CA	95628	(916) 723-5947
3455	107 Red Top Rd	Fairfield	CA	94534	(707) 863-9781
568	1965 Texas St	Fairfield	CA	94533	(707) 429-2772
4346	4490 Central Way	Fairfield	CA	94534	(707) 864-3641
451	1980 N Texas St	Fairfield	CA	94533	(707) 426-5039
66	1465 S Mission Rd	Fallbrook	CA	92028	(760) 723-8565
5401	1662 N Farmersville Blvd	Farmersville	CA	93223	(000) 000-0000
3442	9550 Greenback Ln	Folsom	CA	95630	(916) 988-3927
3452	401 Blue Ravine Rd	Folsom	CA	95630	(916) 983-2139
5385	15274 Summit Ave	Fontana	CA	92336	(909) 803-5849
3383	14485 Foothill Blvd	Fontana	CA	92335	(909) 429-1128
3370	3910 Sierra Ave	Fontana	CA	92336	(909) 429-0170
5376	11285 Sierra Ave	Fontana	CA	92337	(909) 428-3289
3334	8134 Sierra Ave	Fontana	CA	92335	(909) 427-0109
3554	13449 Baseline Ave	Fontana	CA	92336	(909) 463-6434
199	10110 Sierra Ave	Fontana	CA	92335	(909) 822-1189
3371	10048 Cherry Ave	Fontana	CA	92335	(909) 356-0554
3487	1700 Freedom Blvd	Freedom	CA	95019	(831) 724-8081
529	46651 Mission Blvd	Fremont	CA	94539	(510) 657-9652
4328	5533 Stevenson Blvd	Fremont	CA	94538	(510) 490-3299
4366	40015 Mission Blvd	Fremont	CA	94539	(510) 770-9583
425	41115 Fremont Blvd	Fremont	CA	94538	(510) 656-9535
3461	43921 Osgood Rd	Fremont	CA	94539	(510) 353-9739
402	36848 Fremont Blvd	Fremont	CA	94536	(510) 793-6011
598	34701 Ardenwood Blvd	Fremont	CA	94555	(510) 796-5972
3294	3085 E Central Ave	Fresno	CA	93725	(559) 237-6189
526	2195 W Shaw Ave	Fresno	CA	93711	(559) 229-4247
3295	8008 N Cedar Ave	Fresno	CA	93720	(559) 324-1822
441	2124 N Blackstone Hwy	Fresno	CA	93703	(559) 224-6431
538	6720 N Blackstone Ave	Fresno	CA	93710	(559) 432-2826
3398	1167 N Clovis Ave	Fresno	CA	93727	(559) 453-2871
507	3025 E Shaw Ave	Fresno	CA	93710	(559) 292-7754
3367	4085 N Golden State Blvd	Fresno	CA	93722	(559) 275-6985
582	4968 E Kings Canyon Rd	Fresno	CA	93727	(559) 251-5070
509	3110 E Tulare St	Fresno	CA	93702	(559) 237-2833
3530	3058 W Clinton Ave	Fresno	CA	93722	(559) 275-4237
5379	6759 N Milburn Ave	Fresno	CA	93722	(559) 449-0424
3244	235 E Orangethorpe Ave	Fullerton	CA	92832	(714) 578-0451
3337	2001 N Euclid St	Fullerton	CA	92835	(714) 447-8176
5395	751 N Placentia Ave	Fullerton	CA	92831	(714) 993-3814
3277	439 E Imperial Hwy	Fullerton	CA	92835	(714) 871-1926
394	1010 N Harbor Blvd	Fullerton	CA	92832	(714) 526-0235
262	2315 W Orangethorpe Ave	Fullerton	CA	92833	(714) 992-1793
4367	10390 Twin Cities Rd	Galt	CA	95632	(209) 744-0700
3242	8971 Garden Grove Blvd	Garden Grove	CA	92844	(714) 537-1783
195	12107 Euclid St	Garden Grove	CA	92840	(714) 530-5285
173	13282 Harbor Blvd	Garden Grove	CA	92843	(714) 537-5133
3542	1099 W Artesia Blvd	Gardena	CA	90248	(310) 532-3528
3260	13510 Western Ave	Gardena	CA	90249	(310) 538-5561
3283	1000 W Rosecrans Ave	Gardena	CA	90247	(310) 538-3149
478	7895 Monterey Rd	Gilroy	CA	95020	(408) 848-2395
4369	7110 Camino Arroyo	Gilroy	CA	95020	(408) 847-8131
3458	5900 Travel Park Cir	Gilroy	CA	95020	(408) 847-8857
392	9195 Jurupa Rd	Glen Avon	CA	92509	(951) 681-6161
3170	805 N Pacific Ave	Glendale	CA	91203	(818) 247-0717
342	1200 W Glenoaks Blvd	Glendale	CA	91201	(818) 956-0470
325	1131 Colorado St	Glendale	CA	91205	(818) 240-0450
159	6875 Hollister Ave	Goleta	CA	93117	(805) 685-8552
333	17744 Chatsworth St	Granada Hills	CA	91344	(818) 363-9013
349	16945 San Fernando Mission	Granada Hills	CA	91344	(818) 363-9982
583	11801 E Main St	Grass Valley	CA	95945	(530) 272-3041
324	1159 S Hacienda Blvd	Hacienda Heights	CA	91745	(626) 330-3608
563	1518 N 11th Ave	Hanford	CA	93230	(559) 582-6382
5343	1650 W Lacey Blvd	Hanford	CA	93230	(559) 584-7886
380	12150 Carson St	Hawaiian Gardens	CA	90716	(562) 496-0540
383	5016 El Segundo Blvd	Hawthorne	CA	90250	(310) 644-0027
531	31005 Mission Blvd	Hayward	CA	94544	(510) 487-6838
405	1075 W Tennyson Rd	Hayward	CA	94544	(510) 887-0733
3423	1490 Winton Ave	Hayward	CA	94545	(510) 264-1812
447	24175 Mission Blvd	Hayward	CA	94544	(510) 537-2121
3415	18555 Mission Blvd	Hayward	CA	94541	(510) 317-7727
424	25198 Hesperian Blvd	Hayward	CA	94545	(510) 786-3449
5393	43150 E Florida Ave	Hemet	CA	92544	(951) 927-2769
3239	3111 W Florida Ave	Hemet	CA	92545	(951) 766-8890
168	1595 E Florida Ave	Hemet	CA	92544	(951) 929-2104
3471	3800 San Pablo Ave Bldg A	Hercules	CA	94547	(510) 964-0820
257	1160 Aviation Blvd	Hermosa Beach	CA	90254	(310) 379-9173
182	17378 Main St	Hesperia	CA	92345	(760) 948-1353
3282	13137 Main St	Hesperia	CA	92345	(760) 947-7177
192	3653 E Highland Ave	Highland	CA	92346	(909) 864-0466
354	6250 York Blvd	Highland Park	CA	90042	(323) 254-9300
3448	391 Mccray St	Hollister	CA	95023	(831) 630-0507
385	1243 N Highland Ave	Hollywood	CA	90038	(323) 461-7605
3385	19090 Brookhurst St	Huntington Beach	CA	92646	(714) 963-7772
191	15001 Edwards St	Huntington Beach	CA	92647	(714) 894-0078
263	16311 Beach Blvd	Huntington Beach	CA	92647	(714) 841-4984
377	18462 Beach Blvd	Huntington Beach	CA	92648	(714) 841-2325
285	17243 Pacific Coast Highway	Huntington Beach	CA	92648	(562) 592-1465
289	6042 Edinger Ave	Huntington Beach	CA	92647	(714) 846-2235
155	2601 E Slauson Ave	Huntington Park	CA	90255	(323) 585-2125
12	890 Palm Ave	Imperial Beach	CA	91932	(619) 424-6302
82	82210 Us Highway 111	Indio	CA	92201	(760) 347-2188
254	1127 W Manchester Blvd	Inglewood	CA	90301	(310) 337-0864
3500	11306 Crenshaw Blvd	Inglewood	CA	90303	(323) 242-9499
256	4069 W Century Blvd	Inglewood	CA	90304	(310) 419-8153
232	4737 Imperial Hwy	Inglewood	CA	90304	(310) 673-5025
3538	3911 Irvine Blvd	Irvine	CA	92602	(714) 832-4590
5336	4289 Campus Dr	Irvine	CA	92612	(949) 823-8983
3278	6565 Burt Rd	Irvine	CA	92618	(949) 733-8031
3225	16000 Arrow Hwy	Irwindale	CA	91706	(626) 337-1684
3263	33313 Bernard Dr	Kettleman City	CA	93239	(559) 386-4413
3372	1881 6th Avenue Dr	Kingsburg	CA	93631	(559) 897-9274
303	2225 Foothill Blvd	La Canada	CA	91011	(818) 957-1963
3298	1231 W Whittier Blvd	La Habra	CA	90631	(562) 691-1945
57	564 Pearl St	La Jolla	CA	92037	(858) 454-5625
4	6987 University Ave	La Mesa	CA	91941	(619) 469-1639
35	5141 Jackson Dr	La Mesa	CA	91941	(619) 697-3233
25	6140 Lake Murray Blvd	La Mesa	CA	91942	(619) 463-1410
3544	13495  Beach Blvd	La Mirada	CA	90638	(562) 902-2214
319	14304 Amar Rd	La Puente	CA	91744	(626) 918-7569
5337	506 Workman Mill Rd	La Puente	CA	91746	(626) 336-5853
3333	1805 N Hacienda Blvd	La Puente	CA	91744	(626) 918-9484
3593	79724 Highway 111	La Quinta	CA	92253	(760) 863-0350
429	3407 Mt Diablo Blvd	Lafayette	CA	94549	(925) 284-1371
296	1201 S Coast Hwy	Laguna Beach	CA	92651	(949) 494-9557
3350	23562 Moulton Pkwy	Laguna Hills	CA	92653	(949) 586-9328
5378	29993 Canyon Hills Rd	Lake Elsinore	CA	92532	(951) 244-2649
3182	31650 Riverside Dr	Lake Elsinore	CA	92530	(951) 674-7656
3287	22661 Lake Forest Dr	Lake Forest	CA	92630	(949) 859-5785
3546	20101 Lake Forest Dr	Lake Forest	CA	92630	(949) 455-1228
3490	41 Soda Bay Rd	Lakeport	CA	95453	(707) 263-8063
58	12155 Woodside Ave	Lakeside	CA	92040	(619) 443-0161
259	5747 Lakewood Blvd	Lakewood	CA	90712	(562) 602-1100
214	5858 Del Amo Blvd	Lakewood	CA	90713	(562) 420-9971
3386	11501 Carson St	Lakewood	CA	90715	(562) 860-2027
4397	9606 Weedpatch Hwy	Lamont	CA	93241	(661) 845-4015
3562	2443 W Avenue I	Lancaster	CA	93536	(661) 726-3626
367	43628 W 10th St	Lancaster	CA	93534	(661) 942-0522
5309	1799 E Avenue J	Lancaster	CA	93535	(661) 949-8975
3300	2030 W Avenue K	Lancaster	CA	93536	(661) 945-4244
588	100 E Louise Ave	Lathrop	CA	95330	(209) 858-1801
239	15025 Hawthorne Blvd	Lawndale	CA	90260	(310) 644-3584
3273	73 Frazier Mountain Park Rd	Lebec	CA	93243	(661) 248-2360
3194	8968 Grapevine Rd E	Lebec	CA	93243	(661) 248-6807
10	7979 Broadway	Lemon Grove	CA	91945	(619) 463-4800
3004	7015 Broadway	Lemon Grove	CA	91945	(619) 460-2529
517	31 E Hanford Armona Rd	Lemoore	CA	93245	(559) 924-0424
4313	455 Highway 65	Lincoln	CA	95648	(916) 409-0571
483	1817 1st St	Livermore	CA	94550	(925) 447-4325
3462	1650 N Livermore Ave	Livermore	CA	94551	(925) 371-2950
3419	6020 Industrial Way	Livermore	CA	94551	(925) 606-0793
4351	400 Joseph Gallo Ct	Livingston	CA	95334	(209) 394-8840
493	419 W Lodi Ave	Lodi	CA	95240	(209) 369-4590
4301	2425 Kettleman Ln	Lodi	CA	95242	(209) 334-3875
283	1724 W Pacific Coast Hwy	Lomita	CA	90717	(310) 326-5225
152	2101 Palos Verdes Dr N	Lomita	CA	90717	(310) 325-4552
390	539 N H St	Lompoc	CA	93436	(805) 735-1264
156	5601 Pacific Coast Hwy	Long Beach	CA	90804	(562) 494-4799
271	3032 Palo Verde Ave	Long Beach	CA	90808	(562) 496-0741
384	1190 E Pacific Coast Hwy	Long Beach	CA	90806	(562) 591-3868
3150	3605 Atlantic Ave	Long Beach	CA	90807	(562) 424-9050
244	5252 E 2nd St	Long Beach	CA	90803	(562) 439-8323
3302	1720 W Pacific Coast Hwy	Long Beach	CA	90810	(562) 436-6850
376	3980 E Ocean Blvd	Long Beach	CA	90803	(562) 439-6798
3226	4170 Lakewood Blvd	Long Beach	CA	90808	(562) 496-4565
3573	6025 Long Beach Blvd	Long Beach	CA	90805	(562) 728-4499
213	3399 E Pacific Coast Hwy	Long Beach	CA	90755	(562) 494-6740
216	2101 E Anaheim St	Long Beach	CA	90804	(562) 439-8958
3238	2001 E Artesia Blvd	Long Beach	CA	90805	(562) 531-6894
219	652 Atlantic Ave	Long Beach	CA	90802	(562) 436-5728
3597	5150 Atlantic Ave	Long Beach	CA	90805	(562) 423-2164
5351	11250 Los Alamitos Blvd	Los Alamitos	CA	90720	(562) 598-6302
421	4896 El Camino Real	Los Altos	CA	94022	(650) 964-3166
293	465 S Fairfax Ave	Los Angeles	CA	90036	(323) 936-7709
3214	1615 S Broadway	Los Angeles	CA	90015	(213) 748-7177
3280	3600 E 3rd St	Los Angeles	CA	90063	(323) 780-9909
3580	11400 S Figueroa St	Los Angeles	CA	90061	(323) 757-2677
280	10967 Santa Monica Blvd	Los Angeles	CA	90025	(310) 479-0462
3262	5101 Jefferson Blvd	Los Angeles	CA	90016	(323) 525-0868
5425	1000 W Slauson Ave	Los Angeles	CA	90044	(323) 834-0199
151	5075 W Whittier Blvd	Los Angeles	CA	90022	(323) 266-2449
270	4353 S Figueroa St	Los Angeles	CA	90037	(323) 235-4345
335	2521 Pasadena Ave	Los Angeles	CA	90031	(323) 223-6094
3215	1900 W 6th St	Los Angeles	CA	90057	(213) 483-1768
3507	1415 S Alameda St	Los Angeles	CA	90021	(213) 746-8827
5352	12735 S Main St	Los Angeles	CA	90061	(323) 820-1865
3166	2921 S Figueroa St	Los Angeles	CA	90007	(213) 745-5530
370	1135 N Mission Rd	Los Angeles	CA	90033	(323) 223-6346
3173	6407  W Sunset Blvd	Los Angeles	CA	90028	(323) 465-3617
290	2511 S Vermont Ave	Los Angeles	CA	90007	(323) 735-7124
292	4210 Crenshaw Blvd	Los Angeles	CA	90008	(323) 293-0034
294	10307 S Central Ave	Los Angeles	CA	90002	(323) 564-7156
389	459 S Vermont Ave	Los Angeles	CA	90020	(213) 389-1023
298	7120 S Broadway	Los Angeles	CA	90003	(323) 751-5083
3230	2120 W Pico Blvd	Los Angeles	CA	90006	(213) 252-8209
3153	830 N Vermont Ave	Los Angeles	CA	90029	(323) 660-5238
299	4255 E Cesar E Chavez Ave	Los Angeles	CA	90063	(323) 266-1730
287	4407 S Central Ave	Los Angeles	CA	90011	(323) 233-4440
286	4965 Huntington Dr N	Los Angeles	CA	90032	(323) 227-9759
3161	11010 Pico Blvd	Los Angeles	CA	90064	(310) 470-8581
279	1441 W Martin Luther King Blvd	Los Angeles	CA	90062	(323) 290-2520
291	10701 Venice Blvd	Los Angeles	CA	90034	(310) 836-2385
3343	4228 N Figueroa St	Los Angeles	CA	90065	(323) 227-1710
229	2220 W Slauson Ave	Los Angeles	CA	90043	(323) 298-0653
3339	1335  S Soto St	Los Angeles	CA	90023	(323) 263-1450
224	12403 Washington Pl	Los Angeles	CA	90066	(310) 397-4845
5323	1355 E Florence Ave	Los Angeles	CA	90001	(323) 588-5711
5312	7201 S Western Ave	Los Angeles	CA	90047	(323) 971-2114
233	8605 W Pico Blvd	Los Angeles	CA	90035	(310) 652-8048
228	805 W Manchester Ave	Los Angeles	CA	90044	(323) 751-5074
3393	4290 E Olympic Blvd	Los Angeles	CA	90023	(323) 262-3618
3378	516 N Beaudry Ave	Los Angeles	CA	90012	(213) 975-9455
250	2701 E Cesar E Chavez Ave	Los Angeles	CA	90033	(323) 268-1589
3377	1906 Crenshaw Blvd	Los Angeles	CA	90016	(323) 737-0452
3345	5201 Wilshire Blvd	Los Angeles	CA	90036	(323) 965-8102
4389	1117 W Pacheco Blvd	Los Banos	CA	93635	(209) 829-0391
3451	1370 E Pacheco Blvd	Los Banos	CA	93635	(209) 829-0341
434	15771 Los Gatos Blvd	Los Gatos	CA	95032	(408) 356-1049
188	21958 Highway 46	Lost Hills	CA	93249	(661) 797-2442
3521	11201 Long Beach Blvd	Lynwood	CA	90262	(310) 631-7413
249	11390 Atlantic Ave	Lynwood	CA	90262	(310) 631-6933
524	950 N Gateway Dr	Madera	CA	93637	(559) 661-1412
3541	28692 Avenue 12	Madera	CA	93637	(559) 673-5648
160	23017 Pacific Coast Hwy	Malibu	CA	90265	(310) 456-8943
395	815 N Sepulveda Blvd	Manhattan Beach	CA	90266	(310) 318-3014
4303	1310 E Yosemite Ave	Manteca	CA	95336	(209) 824-5359
3427	1081 S Main St	Manteca	CA	95337	(209) 239-8288
498	1105 N Main St	Manteca	CA	95336	(209) 239-9525
3485	211 Reservation Rd	Marina	CA	93933	(831) 883-1721
4336	11222 Old Mill Ln	Martell	CA	95654	(209) 223-7800
523	3955 Alhambra Ave	Martinez	CA	94553	(925) 229-2288
488	810 E St	Marysville	CA	95901	(530) 741-2889
225	3700 E Slauson Ave	Maywood	CA	90270	(323) 582-6622
3310	30111 Antelope Dr	Menifee	CA	92584	(951) 679-1159
5347	26015 Newport Rd	Menifee	CA	92584	(951) 672-0095
3477	1401 Willow Rd	Menlo Park	CA	94025	(650) 321-5009
580	1270 V St	Merced	CA	95340	(209) 723-2465
465	595 W Olive Ave	Merced	CA	95348	(209) 723-2443
277	15232 Beach Blvd	Midway City	CA	92655	(714) 892-1039
3411	1740 S Main St	Milpitas	CA	95035	(408) 956-8655
3223	10960 Limonite Rd	Mira Loma	CA	91752	(951) 272-3673
3335	25852 El Paseo	Mission Viejo	CA	92691	(949) 367-1909
3188	28651 Marguerite Pkwy	Mission Viejo	CA	92692	(949) 364-9457
3526	25800 Jeronimo Rd Ste 500	Mission Viejo	CA	92691	(949) 768-7485
3449	900 Oakdale Rd	Modesto	CA	95355	(209) 578-1799
3468	801 Kansas Ave	Modesto	CA	95351	(209) 521-2660
543	1624 J St	Modesto	CA	95354	(209) 526-9966
502	1239 Yosemite Blvd	Modesto	CA	95354	(209) 578-3039
3494	3621 Yosemite Blvd	Modesto	CA	95357	(209) 491-3687
575	1800 Mchenry Ave	Modesto	CA	95350	(209) 576-2486
3488	339 Paradise Rd	Modesto	CA	95351	(209) 521-0194
4394	2301 Crows Landing Rd A	Modesto	CA	95351	(209) 537-2955
3445	2937 E Hatch Rd	Modesto	CA	95351	(209) 538-4026
442	2044 W Orangeburg Ave	Modesto	CA	95350	(209) 521-5578
508	3430 Tully Rd Ste 65	Modesto	CA	95350	(209) 526-4355
487	2612 Coffee Rd	Modesto	CA	95355	(209) 578-3151
3318	15536 Highway 14	Mojave	CA	93501	(661) 824-5303
3250	100 W Duarte Rd	Monrovia	CA	91016	(626) 303-0695
193	9515 Central Ave	Montclair	CA	91763	(909) 624-7625
5315	4565 Holt Blvd	Montclair	CA	91763	(909) 447-1214
245	108 N Garfield Ave	Montebello	CA	90640	(323) 724-3764
255	706 W Beverly Blvd	Montebello	CA	90640	(323) 722-0211
5353	892 N Garfield Ave	Montebello	CA	90640	(323) 724-3462
3520	869 W Washington Blvd	Montebello	CA	90640	(323) 722-6943
9014	889 Abrego St	Monterey	CA	93940	(831) 375-1333
5391	538 W New Los Angeles Ave	Moorpark	CA	93021	(805) 553-9283
449	1440 Moraga Way	Moraga	CA	94556	(925) 376-0642
5394	27030 Fir Ave	Moreno Valley	CA	92555	(951) 243-2551
5367	25950 Iris Ave	Moreno Valley	CA	92551	(951) 242-0232
5423	24985 Elder Ave	Moreno Valley	CA	92557	(951) 485-8020
3224	22485 Alessandro Blvd	Moreno Valley	CA	92553	(951) 653-0649
175	12477 Heacock St	Moreno Valley	CA	92553	(951) 242-4030
5388	14485 Moreno Beach Dr	Moreno Valley	CA	92555	(951) 601-1594
3349	23577 Sunnymead Ranch Pkwy	Moreno Valley	CA	92557	(951) 247-7483
3586	15030 Perris Blvd	Moreno Valley	CA	92551	(951) 485-9653
3479	15855 Monterey Rd	Morgan Hill	CA	95037	(408) 778-9134
560	17015 Condit Rd	Morgan Hill	CA	95037	(408) 778-1078
453	200 W El Camino Real	Mountain View	CA	94040	(650) 964-4266
3425	510 N Shoreline Blvd	Mountain View	CA	94043	(650) 964-0937
3369	24620 Madison Ave	Murrieta	CA	92562	(951) 696-5958
5368	39380 Murrieta Hot Springs Rd	Murrieta	CA	92563	(951) 698-6800
3248	39878 Los Alamos Rd	Murrieta	CA	92562	(951) 698-6544
5407	33080 Antelope Rd	Murrieta	CA	92563	(951) 301-4101
435	1641 Trancas St	Napa	CA	94558	(707) 252-7015
4362	850 W Imola Ave	Napa	CA	94559	(707) 252-3244
3	1745 Highland Ave	National City	CA	91950	(619) 477-6211
80	3138 Plaza Blvd	National City	CA	91950	(619) 470-1008
3049	700 Roosevelt Ave	National City	CA	91950	(619) 477-5804
185	221 J St	Needles	CA	92363	(760) 326-4746
3481	39017 Cedar Blvd	Newark	CA	94560	(510) 574-0695
3171	4625 W Coast Hwy	Newport Beach	CA	92663	(949) 650-1763
3212	1491 6th St	Norco	CA	92860	(951) 737-1496
198	2065 River Rd	Norco	CA	92860	(951) 734-0362
561	4990 Watt Ave	North Highlands	CA	95660	(916) 332-4282
3183	12900 Sherman Way	North Hollywood	CA	91605	(818) 982-5225
339	4828 Laurel Cyn Blvd	North Hollywood	CA	91607	(818) 760-4199
314	6551 Lankershim Blvd	North Hollywood	CA	91606	(818) 763-3818
3388	6555 Indian Cyn	North Palm Springs	CA	92258	(760) 251-0206
317	19322 Roscoe Blvd	Northridge	CA	91324	(818) 885-8149
344	9433 Reseda Blvd	Northridge	CA	91324	(818) 885-8261
190	11216 Tampa Ave	Northridge	CA	91326	(818) 368-9941
307	8322 Balboa Ave	Northridge	CA	91325	(818) 345-6492
3169	12603 Norwalk Blvd	Norwalk	CA	90650	(562) 868-5677
217	12060 Rosecrans Ave	Norwalk	CA	90650	(562) 929-6531
288	11353 Firestone Blvd	Norwalk	CA	90650	(562) 929-0132
473	301 Entrada Dr	Novato	CA	94949	(415) 883-8196
4382	7135 Redwood Blvd	Novato	CA	94945	(415) 878-0465
514	606 E F St	Oakdale	CA	95361	(209) 847-2598
4372	40070 Highway 49	Oakhurst	CA	93644	(559) 658-6061
433	4425 Telegraph Ave	Oakland	CA	94609	(510) 652-2363
413	6510 Telegraph Ave	Oakland	CA	94609	(510) 547-5241
533	532 Hegenberger Rd	Oakland	CA	94621	(510) 632-3346
420	2424 E International Blvd	Oakland	CA	94601	(510) 261-1335
578	2185 Main St	Oakley	CA	94561	(925) 625-5931
3068	1900 Mission Ave	Oceanside	CA	92054	(760) 967-3971
98	2474 Vista Way	Oceanside	CA	92054	(760) 966-0041
3061	3909 Mission Ave	Oceanside	CA	92054	(760) 439-9852
89	3808 Plaza Dr	Oceanside	CA	92056	(760) 941-0841
3026	4211 Oceanside Blvd	Oceanside	CA	92056	(760) 758-2964
3578	3500 E Philadelphia St	Ontario	CA	91761	(909) 923-5966
5371	1780 S Grove Ave	Ontario	CA	91761	(909) 947-7049
5330	800 S Mountain Ave Ste A	Ontario	CA	91762	(909) 988-7568
3384	4351 Ontario Mills Pkwy	Ontario	CA	91764	(909) 484-4842
5360	4880 Motor Ln Bldg A	Ontario	CA	91761	(909) 605-2705
3555	1840 Holt Blvd	Ontario	CA	91761	(909) 395-9987
5345	2710 Riverside Dr	Ontario	CA	91761	(909) 773-1706
3381	2458 S Vineyard Ave	Ontario	CA	91761	(909) 923-5743
373	1551 E 4th St	Ontario	CA	91764	(909) 984-3114
3528	990 N Mountain Ave	Ontario	CA	91762	(909) 986-5878
3502	2242 S Euclid Ave	Ontario	CA	91762	(909) 460-6216
5390	3050 W Chapman Ave	Orange	CA	92868	(714) 634-3686
196	2500 N Tustin St	Orange	CA	92865	(714) 998-1450
3305	431 W Katella Ave	Orange	CA	92867	(714) 744-4129
282	3111 E Chapman Ave	Orange	CA	92869	(714) 532-5029
189	5001 Orcutt Rd	Orcutt	CA	93455	(805) 937-7771
515	1797 Oro Dam Blvd	Oroville	CA	95965	(530) 534-3032
3582	2800 S Rose Ave	Oxnard	CA	93033	(805) 486-5019
3252	960 N Ventura Rd	Oxnard	CA	93030	(805) 485-8959
3353	550 S Victoria Ave	Oxnard	CA	93035	(805) 985-2420
3237	2580 N Vineyard Ave	Oxnard	CA	93030	(805) 485-0773
374	17346 Sunset Blvd	Pacific Palisades	CA	90272	(310) 459-9470
327	13648 Van Nuys Blvd	Pacoima	CA	91331	(818) 896-6362
321	9018 Woodman Ave	Pacoima	CA	91331	(818) 891-0195
5363	36555 Cook St	Palm Desert	CA	92211	(760) 773-3025
5381	5200 E Ramon Rd	Palm Springs	CA	92264	(760) 325-4936
3583	694 S Palm Canyon Dr	Palm Springs	CA	92264	(760) 416-2543
3185	2591 E Tahquitz Canyon Way	Palm Springs	CA	92262	(760) 416-6678
363	564 E Palmdale Blvd	Palmdale	CA	93550	(661) 947-2729
3352	570 W Avenue P	Palmdale	CA	93551	(661) 273-8261
3596	37070 47th St E	Palmdale	CA	93552	(661) 285-7382
455	2280 El Camino Real	Palo Alto	CA	94306	(650) 856-0350
306	15342 Roscoe Blvd	Panorama City	CA	91402	(818) 892-7059
513	6729 Skyway	Paradise	CA	95969	(530) 872-3336
3575	6601 E Alondra Blvd	Paramount	CA	90723	(562) 790-8773
3206	7930 Rosecrans Ave	Paramount	CA	90723	(562) 633-6232
215	8433 Alondra Blvd	Paramount	CA	90723	(562) 408-4951
323	30 N Rosemead Blvd	Pasadena	CA	91107	(626) 304-9356
183	1415 E Colorado St	Pasadena	CA	91106	(626) 792-7076
5414	2500 Golden Hill Rd	Paso Robles	CA	93446	(805) 237-0779
3505	1900 Ramada Dr	Paso Robles	CA	93446	(805) 226-8262
171	2304 Spring St	Paso Robles	CA	93446	(805) 238-9002
4356	1499 Creston Rd	Paso Robles	CA	93446	(805) 237-2514
3460	15050 Rogers Rd	Patterson	CA	95363	(209) 892-2206
5316	19248 Harvill Rd Bldg 8	Perris	CA	92570	(951) 940-5223
154	500 E 4th St	Perris	CA	92570	(951) 943-2600
3301	2560 Perris Blvd Bldg X	Perris	CA	92571	(951) 943-2975
484	837 E Washington St	Petaluma	CA	94952	(707) 763-3612
596	1401 N Mcdowell Blvd	Petaluma	CA	94954	(707) 664-1021
3175	6750 Rosemead Blvd	Pico Rivera	CA	90660	(562) 949-5097
436	2689 Pinole Valley Rd	Pinole	CA	94564	(510) 758-2346
4363	334 Five Cities Dr	Pismo Beach	CA	93449	(805) 556-0580
4343	1213 California Ave	Pittsburg	CA	94565	(925) 432-0184
510	2135 Railroad Ave	Pittsburg	CA	94565	(925) 432-3378
3548	2097 E Orangethorpe Ave	Placentia	CA	92870	(714) 993-4579
3253	1097 E Imperial Hwy	Placentia	CA	92870	(714) 528-2960
3203	797 W Orangethorpe Ave	Placentia	CA	92870	(714) 572-3924
541	3945 Missouri Flat Rd	Placerville	CA	95667	(530) 626-1898
414	1817 Contra Costa Blvd	Pleasant Hill	CA	94523	(925) 685-3542
4365	1875 Valley Ave	Pleasanton	CA	94566	(925) 485-6021
476	4295 Valley Ave	Pleasanton	CA	94566	(925) 462-3880
3227	1670 W Mission Rd	Pomona	CA	91766	(909) 629-6539
3587	1335 N Dudley St	Pomona	CA	91768	(909) 622-1004
164	100 E Holt Ave	Pomona	CA	91767	(909) 620-5896
197	101 W Foothill Blvd	Pomona	CA	91767	(909) 596-0029
3547	2775 S Reservoir St	Pomona	CA	91766	(909) 628-5010
3320	2098 S Garey Ave	Pomona	CA	91766	(909) 613-0425
3380	2021 Towne Ave	Pomona	CA	91767	(909) 620-4141
5403	814  N Ventura Rd	Port Hueneme	CA	93041	(805) 483-9010
501	390 W Olive Ave	Porterville	CA	93257	(559) 781-0155
4337	1075 W Henderson Ave	Porterville	CA	93257	(559) 788-2400
51	12424 Poway Rd	Poway	CA	92064	(858) 486-1170
77	1056 Main St	Ramona	CA	92065	(760) 789-6428
499	10699 Folsom Blvd	Rancho Cordova	CA	95670	(916) 364-5340
3522	8840 Foothill Blvd	Rancho Cucamonga	CA	91730	(909) 944-3688
3299	11767 Foothill Blvd	Rancho Cucamonga	CA	91730	(909) 980-3441
5300	10473 Alta Loma Dr	Rancho Cucamonga	CA	91737	(909) 483-6335
3152	8521 Archibald Ave	Rancho Cucamonga	CA	91730	(909) 466-4299
382	29317 S Western Ave	Rancho Palos Verdes	CA	90275	(310) 831-3509
3387	28592 Oso Pkwy	Rancho Santa Margari	CA	92688	(949) 766-5980
3403	1075 S Main St	Red Bluff	CA	96080	(530) 529-2805
3406	1045 Dana Dr	Redding	CA	96003	(530) 222-5520
3486	4085 Railroad Ave	Redding	CA	96001	(530) 244-3828
4361	800 E Cypress Ave	Redding	CA	96002	(530) 226-9478
5305	1141 W Lugonia Ave	Redlands	CA	92374	(909) 793-3880
3297	2062 W Redlands Blvd	Redlands	CA	92373	(909) 793-2444
3177	605 E Redlands Blvd	Redlands	CA	92373	(909) 798-1468
525	1205 Broadway St	Redwood City	CA	94063	(650) 361-1903
438	3199 El Camino Real	Redwood City	CA	94061	(650) 365-4655
469	986 Woodside Rd	Redwood City	CA	94061	(650) 365-2173
3512	605  I St	Reedley	CA	93654	(559) 637-7178
5357	6820 Reseda Blvd	Reseda	CA	91335	(818) 708-3501
5325	1876 N Riverside Ave	Rialto	CA	92376	(909) 820-0557
5327	475 S Cedar Ave	Rialto	CA	92376	(909) 875-7022
162	316 W Foothill Blvd	Rialto	CA	92376	(909) 875-0890
3291	1562 S Riverside Ave	Rialto	CA	92376	(909) 877-1266
3314	919 S China Lake Blvd	Ridgecrest	CA	93555	(760) 375-1953
4348	1442 Colony Dr Ste B	Ripon	CA	95366	(209) 599-5871
4344	2246 Patterson Rd	Riverbank	CA	95367	(209) 863-8924
5304	1371 Blaine St	Riverside	CA	92507	(951) 369-9121
3266	19586 Van Buren Blvd	Riverside	CA	92508	(951) 653-8443
379	3434 14th St	Riverside	CA	92501	(951) 781-2104
179	3981 Tyler St	Riverside	CA	92503	(951) 689-8470
3518	5700 Sycamore Canyon Blvd	Riverside	CA	92507	(951) 787-8079
345	5126 Arlington Ave	Riverside	CA	92504	(951) 354-8859
3581	3886 Chicago Ave	Riverside	CA	92507	(951) 786-3974
3213	3450 La Sierra Ave	Riverside	CA	92503	(951) 687-7580
5338	4860 La Sierra Ave	Riverside	CA	92505	(951) 509-6943
356	3521 Central Ave	Riverside	CA	92506	(951) 781-0832
3366	9485 California Ave	Riverside	CA	92503	(951) 637-0058
3164	7810 Limonite Ave	Riverside	CA	92509	(951) 685-6720
3193	10151 Ben Nevis Blvd	Riverside	CA	92509	(951) 681-1189
3435	6691 Stanford Ranch Rd	Rocklin	CA	95677	(916) 625-9232
585	4410 Rocklin Rd	Rocklin	CA	95677	(916) 624-2077
456	6299 Commerce Blvd	Rohnert Park	CA	94928	(707) 585-3515
5339	3033 25th St W	Rosamond	CA	93560	(661) 256-5920
308	4216 N Rosemead Blvd	Rosemead	CA	91770	(626) 285-7984
3504	820 San Gabriel Blvd	Rosemead	CA	91770	(626) 569-0363
3566	3038 San Gabriel Blvd	Rosemead	CA	91770	(626) 569-0663
4402	5150 Foothills Blvd	Roseville	CA	95747	(916) 771-4402
570	1923 Douglas Blvd	Roseville	CA	95661	(916) 782-8003
3426	8655 Auburn Blvd	Roseville	CA	95661	(916) 729-5552
346	18950 Colima Rd	Rowland Heights	CA	91748	(626) 913-7717
3572	5642 30th St	Rubidoux	CA	92509	(951) 369-1348
4305	4601 Broadway	Sacramento	CA	95820	(916) 455-8690
3472	9680 Business Park Dr	Sacramento	CA	95827	(916) 366-1988
4404	8349 Folsom Blvd	Sacramento	CA	95826	(916) 381-2261
4326	2750 Del Paso Rd	Sacramento	CA	95834	(916) 285-6753
3421	8750 La Riviera Dr	Sacramento	CA	95826	(916) 364-1455
592	1661 Watt Ave	Sacramento	CA	95864	(916) 483-1769
481	3500 Marconi Ave	Sacramento	CA	95821	(916) 481-2264
492	5800 Freeport Blvd	Sacramento	CA	95822	(916) 395-5790
3402	6300 Power Inn Rd	Sacramento	CA	95824	(916) 387-6579
594	7795 Stockton Blvd	Sacramento	CA	95823	(916) 689-3755
593	2560 W El Camino Ave	Sacramento	CA	95833	(916) 922-6330
3413	4128 Norwood Ave	Sacramento	CA	95838	(916) 922-2125
548	2293 Arden Way	Sacramento	CA	95825	(916) 922-9569
4330	4300 Madison Ave	Sacramento	CA	95842	(916) 331-2868
3480	1001 Howe Ave	Sacramento	CA	95825	(916) 646-4670
532	4849 Madison Ave	Sacramento	CA	95841	(916) 338-5159
566	5420 Stockton Blvd	Sacramento	CA	95820	(916) 454-0244
4329	4435 Florin Rd	Sacramento	CA	95823	(916) 391-0200
4393	975 N Main St	Salinas	CA	93906	(831) 758-2959
450	645 S Main St	Salinas	CA	93901	(831) 758-6218
3459	1225 De La Torre St	Salinas	CA	93905	(831) 769-9604
3422	1810 N Main St	Salinas	CA	93906	(831) 449-5158
4339	1540 N Sanborn Rd	Salinas	CA	93905	(831) 783-1615
163	497 S E St	San Bernardino	CA	92401	(909) 889-4724
3584	1141 W Highland Ave	San Bernardino	CA	92405	(909) 883-6577
3195	4020 University Pkwy	San Bernardino	CA	92407	(909) 880-1257
5415	25699 Baseline St	San Bernardino	CA	92410	(909) 383-4554
177	1605 E Highland Ave	San Bernardino	CA	92404	(909) 884-8915
5322	1148 Coulston St	San Bernardino	CA	92408	(909) 796-4517
194	495 N D St	San Bernardino	CA	92401	(909) 889-4984
371	303 E Base Line St	San Bernardino	CA	92410	(909) 885-7382
5308	193 E 40th St	San Bernardino	CA	92404	(909) 883-6737
404	1700 El Camino Real	San Bruno	CA	94066	(650) 873-4845
468	1100 El Camino Real	San Carlos	CA	94070	(650) 592-3124
378	2398 S El Camino Real	San Clemente	CA	92672	(949) 498-7530
3021	7740 Hazard Center Dr	San Diego	CA	92108	(619) 295-6421
95	13245 Black Mountain Rd	San Diego	CA	92129	(858) 484-7696
3046	2404 Market St	San Diego	CA	92102	(619) 231-1868
90	1619 Pacific Hwy	San Diego	CA	92101	(619) 232-7316
23	2959 Upas St	San Diego	CA	92104	(619) 295-8443
29	5155 College Ave	San Diego	CA	92115	(619) 286-0433
60	9380 Mira Mesa Blvd	San Diego	CA	92126	(858) 566-0052
74	1880 Coronado Ave	San Diego	CA	92154	(619) 424-8383
72	10809 Tierrasanta Blvd	San Diego	CA	92124	(858) 268-8228
69	16725 Bernardo Center Dr	San Diego	CA	92128	(858) 485-5413
3018	4375 Genesee Ave	San Diego	CA	92117	(858) 627-9738
3017	4798 Clairemont Mesa Blvd	San Diego	CA	92117	(858) 627-9552
22	1340 Rosecrans St	San Diego	CA	92106	(619) 222-7608
14	6080 Mission Gorge Rd	San Diego	CA	92120	(619) 325-1799
3012	3801 Murphy Canyon Rd	San Diego	CA	92123	(858) 467-1421
3010	2905 Alta View Dr	San Diego	CA	92139	(619) 472-8958
3034	14371 Penasquitos Dr	San Diego	CA	92129	(858) 672-4637
26	3838 Midway Dr	San Diego	CA	92110	(619) 224-2122
44	1905 Garnet Ave	San Diego	CA	92109	(858) 272-5712
87	7425 Mission Gorge Rd	San Diego	CA	92120	(619) 265-2188
31	1110 C St	San Diego	CA	92101	(619) 234-0785
18	2886 El Cajon Blvd	San Diego	CA	92104	(619) 283-3412
34	1636 Euclid Ave	San Diego	CA	92105	(619) 264-0061
3047	1350 S 43rd St	San Diego	CA	92113	(619) 262-8516
13	3850 Clairemont Mesa Blvd	San Diego	CA	92117	(858) 273-5861
33	220 W Washington St	San Diego	CA	92103	(619) 260-8306
84	804 University Ave	San Diego	CA	92103	(619) 298-1273
3058	2525 Otay Center Dr	San Diego	CA	92154	(619) 710-2427
21	4751 El Cajon Blvd	San Diego	CA	92115	(619) 583-6942
3053	9215 Clairemont Mesa Blvd	San Diego	CA	92123	(858) 573-2972
8	4815 Voltaire St	San Diego	CA	92107	(619) 223-7714
3069	4075 University Ave	San Diego	CA	92105	(619) 281-8735
37	7170 Linda Vista Rd	San Diego	CA	92111	(858) 571-1671
85	7786 Balboa Ave	San Diego	CA	92111	(858) 560-2015
3045	10537 Scripps Poway Pkwy	San Diego	CA	92131	(858) 549-9163
3389	1125 W Arrow Hwy	San Dimas	CA	91773	(909) 394-1919
315	314 San Fernando Mission Blvd	San Fernando	CA	91340	(818) 365-1916
552	42 1st St	San Francisco	CA	94105	(415) 882-7921
545	400 Geary St	San Francisco	CA	94102	(415) 673-0868
558	4649 Geary Blvd	San Francisco	CA	94118	(415) 752-4916
556	366 Bayshore Blvd	San Francisco	CA	94124	(415) 641-8467
312	901 W Las Tunas Dr	San Gabriel	CA	91776	(626) 570-6131
5392	2291 W Esplanade Ave	San Jacinto	CA	92582	(951) 654-1310
3272	770 W Ramona Expy	San Jacinto	CA	92582	(951) 654-3374
590	3395 Stevens Creek Blvd	San Jose	CA	95117	(408) 247-1077
595	6239 Santa Teresa Blvd	San Jose	CA	95119	(408) 225-5417
522	15 S Capitol Ave	San Jose	CA	95127	(408) 259-3443
459	5220 Prospect Rd	San Jose	CA	95129	(408) 253-7149
415	1841 Story Rd	San Jose	CA	95122	(408) 259-6420
409	148 E San Carlos St	San Jose	CA	95112	(408) 287-7520
407	1075 Willow St	San Jose	CA	95125	(408) 947-1488
439	1558 W San Carlos St	San Jose	CA	95126	(408) 293-9605
440	1632 Tully Rd	San Jose	CA	95122	(408) 274-3972
3430	697 Curtner Ave	San Jose	CA	95125	(408) 267-6682
445	425 Blossom Hill Rd	San Jose	CA	95123	(408) 629-5518
506	2195 Morrill Ave	San Jose	CA	95132	(408) 262-0633
458	4602 Almaden Expy	San Jose	CA	95118	(408) 723-3845
485	611 E Capitol Expy	San Jose	CA	95111	(408) 578-5057
3464	6101 San Ignacio Ave	San Jose	CA	95119	(408) 629-4465
3443	3493 Mckee Rd	San Jose	CA	95127	(408) 937-5839
393	26942 Ortega Hwy	San Juan Capistrano	CA	92675	(949) 240-0247
540	699 Lewelling Blvd Ste 120	San Leandro	CA	94579	(510) 352-4849
452	780 Marina Blvd	San Leandro	CA	94577	(510) 352-6610
4391	15025 Hesperian Blvd	San Leandro	CA	94578	(510) 481-1880
491	17550 Hesperian Blvd	San Lorenzo	CA	94580	(510) 481-2697
3290	390 Santa Rosa St	San Luis Obispo	CA	93405	(805) 547-0852
96	717 San Marcos Blvd	San Marcos	CA	92069	(760) 744-2893
71	1655 Capalina Rd	San Marcos	CA	92069	(760) 744-9144
495	555 E 3rd Ave	San Mateo	CA	94401	(650) 347-5911
542	14395 San Pablo Ave	San Pablo	CA	94806	(510) 232-0905
4353	50 San Pablo Towne Ctr	San Pablo	CA	94806	(510) 412-9712
227	600 S Gaffey St	San Pedro	CA	90731	(310) 832-1620
461	1814 2nd St	San Rafael	CA	94901	(415) 453-8510
76	402 W San Ysidro Blvd	San Ysidro	CA	92173	(619) 428-0731
64	721 E San Ysidro Blvd	San Ysidro	CA	92173	(619) 428-4679
519	1300 Jensen Ave	Sanger	CA	93657	(559) 875-7824
3180	601 N Main St	Santa Ana	CA	92701	(714) 836-4368
3545	1730 E Edinger Ave	Santa Ana	CA	92705	(714) 259-7824
3527	3710 S Bristol St	Santa Ana	CA	92704	(714) 241-1185
397	719 N Bristol St	Santa Ana	CA	92703	(714) 835-4610
3241	2502 S Harbor Blvd	Santa Ana	CA	92704	(714) 662-3563
3198	1300 W Edinger Ave	Santa Ana	CA	92704	(714) 754-7290
3158	820 N Harbor Dr	Santa Ana	CA	92703	(714) 554-1692
157	1502 S Main St	Santa Ana	CA	92707	(714) 543-9433
3187	720 E Dyer Rd	Santa Ana	CA	92705	(714) 546-4296
366	501 N Milpas St	Santa Barbara	CA	93103	(805) 965-7714
359	3747 State St	Santa Barbara	CA	93105	(805) 682-8674
3467	3465 Homestead Rd	Santa Clara	CA	95051	(408) 557-0149
401	3367 El Camino Real	Santa Clara	CA	95051	(408) 249-7940
4388	2845 Augustine Dr	Santa Clara	CA	95054	(408) 969-0887
423	911 El Camino Real	Santa Clara	CA	95050	(408) 244-0255
3344	26547 Bouquet Canyon Rd	Santa Clarita	CA	91350	(661) 297-4881
369	22908 Lyons Ave	Santa Clarita	CA	91321	(661) 254-3330
3595	18525 Via Princessa	Santa Clarita	CA	91387	(661) 251-0017
3296	24820 Pico Canyon Rd	Santa Clarita	CA	91381	(661) 259-1401
444	640 Ocean St	Santa Cruz	CA	95060	(831) 425-8964
5333	13402 Imperial Hwy	Santa Fe Springs	CA	90670	(562) 407-2069
3218	11442 Telegraph Rd	Santa Fe Springs	CA	90670	(562) 868-1242
3209	1041 E Main St	Santa Maria	CA	93454	(805) 346-1190
9001	830 S Broadway	Santa Maria	CA	93454	(805) 922-5693
3317	2306 S Broadway	Santa Maria	CA	93454	(805) 922-0627
237	2423 Wilshire Blvd	Santa Monica	CA	90403	(310) 829-5761
153	802 Santa Monica Blvd	Santa Monica	CA	90401	(310) 458-3584
274	2025 Lincoln Blvd	Santa Monica	CA	90405	(310) 450-2927
5334	12754 S Highway 33	Santa Nella	CA	95322	(209) 826-4078
165	306 S Palm Ave	Santa Paula	CA	93060	(805) 525-7992
3497	2755 Santa Rosa Ave	Santa Rosa	CA	95407	(707) 535-0154
581	3086 Marlow Rd	Santa Rosa	CA	95403	(707) 545-5834
463	1004 Steele Ln	Santa Rosa	CA	95403	(707) 526-9877
497	2550 Hoen Frontage Rd	Santa Rosa	CA	95405	(707) 526-9050
554	425 Sebastopol Rd	Santa Rosa	CA	95407	(707) 571-0153
3007	10330 Mast Blvd	Santee	CA	92071	(619) 562-4473
3056	8500 Magnolia Ave	Santee	CA	92071	(619) 258-5492
20	9337 Mission Gorge Rd	Santee	CA	92071	(619) 448-1245
4401	6014 Scotts Valley Dr	Scotts Valley	CA	95066	(831) 430-9262
454	1533 Fremont Blvd	Seaside	CA	93955	(831) 394-2747
3395	2867 Highland Ave	Selma	CA	93662	(559) 898-0206
3565	15651 Nordhoff St	Sepulveda	CA	91343	(818) 893-9919
5409	801 E Spring St	Signal Hill	CA	90755	(562) 426-3069
3365	5798 E Los Angeles Ave	Simi Valley	CA	93063	(805) 526-2440
3540	130 Cochran St	Simi Valley	CA	93065	(805) 955-0799
3281	1579 Los Angeles Ave	Simi Valley	CA	93065	(805) 520-1666
3466	602 W Napa St	Sonoma	CA	95476	(707) 935-0258
518	13751 Mono Way	Sonora	CA	95370	(209) 532-2900
220	3504 Firestone Blvd	South Gate	CA	90280	(323) 564-8168
3228	8920 Atlantic Ave	South Gate	CA	90280	(323) 569-2335
7321	2649 Lake Tahoe Blvd	South Lake Tahoe	CA	96150	(530) 544-7321
516	1695 El Camino Real	South San Francisco	CA	94080	(650) 994-5805
448	201 S Spruce St	South San Francisco	CA	94080	(650) 588-7400
73	1047 Sweetwater Rd	Spring Valley	CA	91977	(619) 464-0705
65	10255 Campo Rd	Spring Valley	CA	91978	(619) 660-0905
247	8040 Chapman Ave	Stanton	CA	90680	(714) 897-3289
3204	7482 Katella Ave	Stanton	CA	90680	(714) 891-6024
486	920 E Hammer Ln	Stockton	CA	95210	(209) 473-7016
3408	4989 S Highway 99	Stockton	CA	95215	(209) 943-2157
460	6200 Pacific Ave	Stockton	CA	95207	(209) 957-8173
464	1504 Pacific Ave	Stockton	CA	95204	(209) 466-9256
4370	733 W Charter Wy	Stockton	CA	95206	(209) 465-2682
534	2592 March Ln	Stockton	CA	95207	(209) 951-6424
4374	10858 Trinity Park Way	Stockton	CA	95219	(209) 956-0596
565	3506 W Hammer Ln	Stockton	CA	95219	(209) 951-6818
3483	499 Grizzly Island Rd	Suisun City	CA	94585	(707) 426-6119
341	7955 Vineland Ave	Sun Valley	CA	91352	(818) 764-0359
301	8405 Foothill Blvd	Sunland	CA	91040	(818) 352-1881
504	813 W El Camino Real	Sunnyvale	CA	94087	(408) 737-2751
3432	2910 Main St	Susanville	CA	96130	(530) 257-7838
332	13622 Foothill Blvd	Sylmar	CA	91342	(818) 365-5477
3231	801 Tucker Rd	Tehachapi	CA	93561	(661) 822-1316
3364	40412 Winchester Rd	Temecula	CA	92591	(951) 699-5668
48	27410 Jefferson Ave	Temecula	CA	92590	(951) 676-6037
3391	32055 Temecula Pkwy	Temecula	CA	92592	(951) 303-0933
3156	9965 Lower Azusa Rd	Temple City	CA	91780	(626) 401-9730
351	484 Moorpark Rd	Thousand Oaks	CA	91360	(805) 495-7874
3374	72955 Varner Rd	Thousand Palms	CA	92276	(760) 343-3796
3288	2705 Pacific Coast Hwy	Torrance	CA	90505	(310) 534-0220
5350	3940 Redondo Beach Blvd	Torrance	CA	90504	(310) 715-6494
267	2760 Cabrillo Ave	Torrance	CA	90501	(310) 212-0967
261	4911 Torrance Blvd	Torrance	CA	90503	(310) 371-8306
230	17916 Hawthorne Blvd	Torrance	CA	90504	(310) 370-9262
3332	2186 Redondo Beach Blvd	Torrance	CA	90504	(310) 538-1459
3155	835 W Carson St	Torrance	CA	90502	(310) 212-0972
3270	21602 Plano Trabuco Rd	Trabuco Canyon	CA	92679	(949) 589-3276
4376	3400 Macarthur Dr	Tracy	CA	95376	(209) 839-9732
4300	1935 W 11th St	Tracy	CA	95376	(209) 836-2066
557	611 W Grant Line Rd	Tracy	CA	95376	(209) 836-2673
480	444 E Tulare Ave	Tulare	CA	93274	(559) 688-6464
3484	2601 Geer Rd	Turlock	CA	95382	(209) 656-1845
466	100 N Golden State Blvd	Turlock	CA	95380	(209) 669-6585
3409	1951 Lander Rd	Turlock	CA	95380	(209) 634-5848
3275	3089 Edinger Ave	Tustin	CA	92780	(949) 857-0849
295	14002 Newport Ave	Tustin	CA	92780	(714) 832-4203
396	17401 17th St	Tustin	CA	92780	(714) 731-9960
3563	73762 29 Palms Hwy	Twentynine Palms	CA	92277	(760) 361-5117
3469	1115 Airport Park Blvd	Ukiah	CA	95482	(707) 462-5296
186	611 W Foothill Blvd	Upland	CA	91786	(909) 946-9588
3475	220 Nut Tree Pkwy	Vacaville	CA	95687	(707) 446-2366
551	1035 Alamo Dr	Vacaville	CA	95687	(707) 446-2645
475	290 E Monte Vista Ave	Vacaville	CA	95688	(707) 448-0192
587	1130 Leisure Town Rd	Vacaville	CA	95687	(707) 448-1383
5319	28083 Newhall Ranch Rd	Valencia	CA	91355	(661) 257-9267
3390	28144 The Old Rd	Valencia	CA	91355	(661) 295-3258
3453	35 Admiral Callaghan Ln	Vallejo	CA	94591	(707) 557-3473
470	400 Broadway St	Vallejo	CA	94590	(707) 554-3562
520	1610 Lewis Brown Dr	Vallejo	CA	94589	(707) 552-8307
3205	6351 Sepulveda Blvd	Van Nuys	CA	91411	(818) 988-4049
330	6416 Woodman Ave	Van Nuys	CA	91401	(818) 909-0066
337	6847 Van Nuys Blvd	Van Nuys	CA	91405	(818) 782-1823
3553	16860 Vanowen St	Van Nuys	CA	91406	(818) 779-1350
3351	11044 Citrus Dr	Ventura	CA	93004	(805) 647-5451
3354	2115 S Victoria Ave	Ventura	CA	93003	(805) 658-1723
372	2352 E Thompson Blvd	Ventura	CA	93003	(805) 643-6617
5399	14515 Mojave Dr	Victorville	CA	92394	(760) 241-3022
3269	12440 Amargosa Rd	Victorville	CA	92392	(760) 241-0740
361	14618 7th St	Victorville	CA	92392	(760) 243-7575
3184	12134 Hesperia Rd	Victorville	CA	92392	(760) 241-7479
427	1120 S Mooney Blvd	Visalia	CA	93277	(559) 732-0522
3440	1400 N Ben Maddox Way	Visalia	CA	93292	(559) 741-1116
3592	5340 W Cypress Ave	Visalia	CA	93277	(559) 739-7369
3019	1471 N Santa Fe Ave	Vista	CA	92084	(760) 630-4895
3002	740 Sycamore Rd	Vista	CA	92083	(760) 727-4081
55	815 E Vista Way	Vista	CA	92084	(760) 758-2146
3032	3281 Business Park Dr	Vista	CA	92081	(760) 734-1816
3029	260 S Melrose Dr	Vista	CA	92081	(760) 940-8255
3210	1245 N Grand Ave	Walnut	CA	91789	(909) 595-9856
417	2295 N Main St	Walnut Creek	CA	94596	(925) 944-5690
4383	1920 Highway 46	Wasco	CA	93280	(661) 758-4754
574	1085 S Green Valley Rd	Watsonville	CA	95076	(831) 724-3993
358	2548 S Azusa Ave	West Covina	CA	91792	(626) 912-0784
3456	775 Harbor Pointe Pl	West Sacramento	CA	95605	(916) 374-8319
150	15521 Brookhurst St	Westminster	CA	92683	(714) 839-2339
3338	13721 Goldenwest St	Westminster	CA	92683	(714) 899-9112
297	11303 Washington Blvd	Whittier	CA	90606	(562) 699-2684
3221	13561 Whittier Blvd	Whittier	CA	90605	(562) 696-7188
221	13400 Telegraph Rd	Whittier	CA	90605	(562) 941-6480
5321	15948 Whittier Blvd	Whittier	CA	90603	(562) 943-2834
3303	14437 Telegraph Rd	Whittier	CA	90604	(562) 204-0614
5364	36196 Hidden Springs Rd	Wildomar	CA	92595	(951) 678-8833
3311	21960 Bundy Canyon Rd	Wildomar	CA	92595	(951) 245-7970
4357	788 S Main St	Willits	CA	95490	(707) 459-4129
3151	1010 W Pacific Coast Hwy	Wilmington	CA	90744	(310) 835-5308
3196	17022 Van Buren Blvd	Woodcrest	CA	92504	(951) 780-4951
512	1200 E Main St	Woodland	CA	95776	(530) 666-4374
3457	2010 E Main St	Woodland	CA	95776	(530) 669-6606
3347	20037 Ventura Blvd	Woodland Hills	CA	91364	(818) 887-9339
343	22664 Ventura Blvd	Woodland Hills	CA	91364	(818) 224-3460
353	22730 Victory Blvd	Woodland Hills	CA	91367	(818) 715-0550
3588	35745 Ghost Town Rd	Yermo	CA	92398	(760) 254-3543
3234	21430 Yorba Linda Blvd	Yorba Linda	CA	92887	(714) 970-2862
546	1111 Colusa Ave	Yuba City	CA	95991	(530) 673-0230
4359	1030 Tharp Rd	Yuba City	CA	95993	(530) 673-3283
169	34504 Yucaipa Blvd	Yucaipa	CA	92399	(909) 797-5344
3306	57930 29 Palms Hwy	Yucca Valley	CA	92284	(760) 369-0904
location_id	address	city	state	zip	phone
8223	50 E Puainako St	Hilo	HI	96720	(808) 959-3111
8213	4510 Salt Lake Blvd	Honolulu	HI	96818	(808) 487-2423
8227	1001 Bishop St	Honolulu	HI	96813	(808) 523-9884
8210	633 Kapahulu Ave	Honolulu	HI	96815	(808) 735-2696
8230	4859 Warden Ave	Honolulu	HI	96818	(808) 422-6887
8208	875 Kapiolani Blvd	Honolulu	HI	96813	(808) 593-8076
8237	1525 S King St	Honolulu	HI	96826	(808) 941-1429
8244	1180 S King St	Honolulu	HI	96814	(808) 591-1096
8205	2317 N School St	Honolulu	HI	96819	(808) 841-7211
8204	1970 S King St	Honolulu	HI	96826	(808) 949-1471
8203	2183 N King St	Honolulu	HI	96819	(808) 847-6058
8201	535 Dillingham Blvd	Honolulu	HI	96817	(808) 847-3837
8212	150 E Kamehameha Ave	Kahului	HI	96732	(808) 871-5866
8219	112 Oneawa St	Kailua	HI	96734	(808) 263-6441
8251	75-934 Henry St	Kailua Kona	HI	96740	(808) 331-8808
8211	45-960 Kam Hwy	Kaneohe	HI	96744	(808) 247-1766
8246	591 Farrington Hwy	Kapolei	HI	96707	(808) 674-9607
8222	1301 S  Kehei  Rd	Kihei	HI	96753	(808) 874-0155
8239	95-221 Kipapa Dr	Mililani	HI	96789	(808) 625-2811
8233	384 Kamehameha Hwy	Pearl City	HI	96782	(808) 487-8404
8209	11 S Kamehameha Hwy	Wahiawa	HI	96786	(808) 621-8113
8252	85-950 Farrington Hwy	Waianae	HI	96792	(808) 668-2164
8245	700 Lower Main St	Wailuku	HI	96793	(808) 249-2943
8207	41-1537 Kalanianaole Hwy	Waimanalo	HI	96795	(808) 259-8127
8206	94-866 Moloalo Ave	Waipahu	HI	96797	(808) 671-0033
8249	94-327 Kunia Rd	Waipahu	HI	96797	(808) 671-2300
8217	94-839 Ukee St	Waipahu	HI	96797	(808) 671-2448
